{"type":"FeatureCollection","features":[{"type":"Feature","id":0,"geometry":{"type":"Point","coordinates":[95.70080793805694,25.999154999241249]},"properties":{"FID":0,"No":1,"Station":"Hkamti","Latitude":26,"Longitude":95.700000000000003,"Data_avail":"1978-2015","River":"Chindwin","GRDC_No":2260100,"AvgAnnPrec":2695}},{"type":"Feature","id":1,"geometry":{"type":"Point","coordinates":[94.420000000000002,23.629999999999999]},"properties":{"FID":1,"No":2,"Station":"Mawlaik","Latitude":23.629999999999999,"Longitude":94.420000000000002,"Data_avail":"1996-2010","River":"Chindwin","GRDC_No":2260110,"AvgAnnPrec":2014}},{"type":"Feature","id":2,"geometry":{"type":"Point","coordinates":[95.129999999999995,22.100000000000001]},"properties":{"FID":2,"No":3,"Station":"Monywa","Latitude":22.100000000000001,"Longitude":95.129999999999995,"Data_avail":"1996-2010","River":"Chindwin","GRDC_No":2260120,"AvgAnnPrec":1530}},{"type":"Feature","id":3,"geometry":{"type":"Point","coordinates":[96.329999999999998,24.170000000000002]},"properties":{"FID":3,"No":4,"Station":"Katha","Latitude":24.170000000000002,"Longitude":96.329999999999998,"Data_avail":"1996-2010","River":"Irrawaddy","GRDC_No":2260400,"AvgAnnPrec":2116}},{"type":"Feature","id":4,"geometry":{"type":"Point","coordinates":[96.099999999999994,21.98]},"properties":{"FID":4,"No":5,"Station":"Sagaing","Latitude":21.98,"Longitude":96.099999999999994,"Data_avail":"1978-2015","River":"Irrawaddy","GRDC_No":2260500,"AvgAnnPrec":1503}},{"type":"Feature","id":5,"geometry":{"type":"Point","coordinates":[94.920000000000002,20.129999999999999]},"properties":{"FID":5,"No":6,"Station":"Magway","Latitude":20.129999999999999,"Longitude":94.920000000000002,"Data_avail":"1996-2010","River":"Irrawaddy","GRDC_No":2260600,"AvgAnnPrec":1256}},{"type":"Feature","id":6,"geometry":{"type":"Point","coordinates":[95.207470794790083,18.803793158284183]},"properties":{"FID":6,"No":7,"Station":"Pyay","Latitude":18.800000000000001,"Longitude":95.219999999999999,"Data_avail":"1996-2010","River":"Irrawaddy","GRDC_No":2260700,"AvgAnnPrec":1318}}]}