{"type":"FeatureCollection","features":[{"type":"Feature","id":0,"geometry":{"type":"LineString","coordinates":[[95.462639007878707,17.904210401136499],[95.470109604030398,17.900008160673998],[95.481782432550702,17.892070556484999],[95.485517813364098,17.885066685983599],[95.490188405451093,17.795416467274499],[95.489721599761296,17.789346388017101],[95.484585739825206,17.781875450123099],[95.478049124674499,17.776272206233099],[95.469644854190705,17.772069718456901],[95.461240607089195,17.766466445788701],[95.450034984457005,17.756660771679101],[95.4332265613006,17.741251868068801],[95.430892155136306,17.733314045344599],[95.432759926482007,17.724909358474701],[95.435094622227993,17.715570821904802],[95.441631487390197,17.706232349186799],[95.484120724685496,17.6688787065276],[95.504664959430698,17.651602659298302],[95.516337733991605,17.646933551991999],[95.532679549308995,17.644599158418199],[95.544352293293102,17.641797765800298],[95.553223621276899,17.637128614427301],[95.561161141828904,17.631992520667399],[95.570032531865806,17.623587939018201],[95.575635543730797,17.616584093697799],[95.580304731976099,17.610047162884999],[95.584040128077902,17.6021094309924],[95.587308624061194,17.593704763008301],[95.587308756261606,17.585766973559],[95.586841964960996,17.578763034708999],[95.580305386682497,17.570825145435101],[95.566298342654093,17.559151710771701],[95.557894100948602,17.553081508307201],[95.551824375124696,17.548412127607001],[95.549489959967204,17.540941231081799],[95.548556515861407,17.518528634136398],[95.549023577858094,17.5091900651909],[95.553692811968702,17.499851560097301],[95.558362022697096,17.491913840795199],[95.595248308381997,17.458295525889501],[95.608321855244697,17.450824864087298],[95.621395278900195,17.450825062837499],[95.634468702555694,17.450825262486902],[95.651744290231505,17.451292454885198],[95.668086078569303,17.450825775100501],[95.681159541794997,17.448491330265298],[95.686762491606601,17.4452229143217],[95.688630193704597,17.4410205821282],[95.690031088314001,17.430748167979399],[95.691432074654301,17.414872606168],[95.689097705362101,17.404600133563299],[95.685362494520604,17.401331574627399],[95.678825866779405,17.3961952560371],[95.667620112846194,17.3938604415806],[95.654546726962195,17.3915255974464],[95.647076198259697,17.391525484131801],[95.639138770337993,17.391058433826501],[95.632602073349005,17.390124477107101],[95.626999223362006,17.387322818289899],[95.620929511927301,17.3817195788966],[95.584978752278602,17.3112127659737],[95.581243641261807,17.301874131377701],[95.580309947144499,17.294403253738199],[95.581710816572894,17.2855316244816],[95.585446141628395,17.281796249064101],[95.593850645935902,17.271990868133599],[95.604589836097006,17.2533138705368],[95.609726022486996,17.2411737947596],[95.633072368408307,17.183274947886101],[95.636807822966105,17.171601777623401],[95.6396094233274,17.162263239255001],[95.640543383644001,17.153391601005101],[95.640543527535499,17.144519949265401],[95.630739846323607,17.058604851465599],[95.627004686743305,17.052067787553302],[95.617199684427405,17.047865279992099],[95.597589573675407,17.045997271225399],[95.577512570898804,17.0431953974702],[95.565839920444205,17.039926720723201],[95.556034955899804,17.033389567777899],[95.551832910590093,17.025451710879501],[95.539227049853494,16.984361762903799],[95.534558296880107,16.9638168122985],[95.539694502155896,16.9502759435351],[95.547632073969297,16.941871336704899],[95.558371086963803,16.9339337001404],[95.567232742739193,16.9273836940847],[95.569110100857699,16.9259960626766],[95.573312511292102,16.911054391933899],[95.574246699137205,16.887707946187899],[95.569577855332298,16.8727661441443],[95.566776517573103,16.865762164824901],[95.557438421670895,16.861559664458198],[95.537828294731199,16.860625517982001],[95.528957032397997,16.861092316477201],[95.509813814570094,16.860158177195501],[95.497674262198203,16.8564225661557],[95.486468533446001,16.852220038809399],[95.476663625558899,16.841947453789299],[95.474329232884301,16.8326088362805],[95.476196938579605,16.8279395715928],[95.4808661304221,16.820935701990699],[95.483667622864701,16.818134168179199],[95.484601520228793,16.812997961104799],[95.482267082588194,16.806460917876901],[95.478531884337102,16.802258500247898],[95.474329747296593,16.799923793710001],[95.467326154685594,16.798055974700201],[95.464153719641004,16.799245638139599],[95.447715866767297,16.807394272050502],[95.439778370496896,16.811129589012001],[95.423903406734695,16.8167325073474],[95.417833616159697,16.815798560520701],[95.413164564611407,16.813930775685201],[95.345930560820193,16.765369165861198],[95.3132472430337,16.749493100629302]]},"properties":{"FID":0,"FID_1":2,"Id":0,"Name":"Ayeyarwady River","InLine_FID":1,"SimLnFLag":1,"MYA":"{&m0wDjrpf","Class":"Major","Shape__Len":201137.76856600001}},{"type":"Feature","id":1,"geometry":{"type":"LineString","coordinates":[[95.3132472430337,16.749493100629302],[95.319752635678995,16.722113461349402],[95.339709605183103,16.6833461815826],[95.341085966934699,16.679446505122701],[95.3417741638319,16.676464394322402],[95.340397901789402,16.6739410415456],[95.338104094921803,16.6721058572498],[95.334433969054402,16.671417622636401],[95.310446991683705,16.6724497457271],[95.314937007967103,16.630126438908199],[95.314707698874301,16.625309163483202],[95.311037672128506,16.618197899503802],[95.304385723030094,16.606957502279698],[95.301174395968005,16.6042047292521],[95.294751702926504,16.601222516295699],[95.280759367394495,16.597322619317399],[95.268831455495601,16.595257903359698],[95.2637850248788,16.594799043329001],[95.261261820164407,16.593881431590599],[95.257362331915004,16.591816830625401],[95.251627828324303,16.5863112947941],[95.246810865852297,16.580346984283],[95.244058330435294,16.575988460650802],[95.244058418465002,16.570253612834499],[95.244746664090201,16.564059986967798],[95.249105496072005,16.528503991391499]]},"properties":{"FID":1,"FID_1":12,"Id":0,"Name":"Shwe Laung River","InLine_FID":11,"SimLnFLag":1,"MYA":"a&Gavmif;jrpf","Class":" ","Shape__Len":34324.157108200001}},{"type":"Feature","id":2,"geometry":{"type":"LineString","coordinates":[[97.504037838655606,25.710544997742801],[97.501182834959906,25.711258705233401],[97.496543519494494,25.710187932855199],[97.492974842408302,25.708403410850401],[97.491190539838101,25.706262043260299],[97.491547587770796,25.700194965040499],[97.492618268418198,25.698053665798898],[97.520098867855395,25.649874506157801],[97.508323818795901,25.588846463786801],[97.506896502105306,25.582779342399501],[97.493336538936603,25.540666293307702],[97.458008006710202,25.474641265207701],[97.454439410562998,25.470001643073399],[97.448729515174193,25.4675032958991],[97.438737235340895,25.4617928609171],[97.432670507856699,25.457866955134399],[97.4287450175608,25.453941099713798],[97.426960764453199,25.450015294655302],[97.405906902799899,25.392199015436599],[97.404836455076904,25.386131901243999],[97.405550362984101,25.380421716273499],[97.407691731473506,25.375782227238901],[97.411260602813201,25.370785884525102],[97.414472519749694,25.368644633846898],[97.418398181816002,25.366503400255802],[97.423394474167793,25.364005303092998],[97.427677060060503,25.360079640127299],[97.429104673527405,25.355797021859001],[97.429104754466394,25.3529419208303],[97.429104865083005,25.3490161571405],[97.4287481229197,25.344376609649998],[97.424465849991094,25.337238757253299],[97.421610956705706,25.3340267027205],[97.415187303596497,25.331885227211799],[97.410191082291206,25.331885110299901],[97.384853063629606,25.333312070859101],[97.380570567669196,25.334025745841899],[97.376644925387893,25.335453204625502],[97.373076155671498,25.336880672402199],[97.368793559886299,25.341163224120699],[97.365581562910194,25.346159574928301],[97.3630833011714,25.351512830676601],[97.359514401053403,25.357579836950599],[97.357373082926003,25.360434887617402],[97.351662975297202,25.365431180868399],[97.347380439766596,25.3675724063656],[97.340599814267705,25.368999799498599],[97.3306073725564,25.368999566574299],[97.323469944639697,25.367928737538701],[97.316689429757503,25.365430366982],[97.311693290290407,25.3625751499407],[97.308481554117705,25.358292424653001],[97.267442784760107,25.300832571935601],[97.264231068372396,25.295836071840601],[97.262447003223201,25.285129402063401],[97.262803986404805,25.281203647366901],[97.267086821409706,25.268355792562101],[97.2695850714573,25.263359423768001],[97.272083311612306,25.258719942827302],[97.276365955960898,25.252652952741101],[97.278150620058597,25.2419463648022],[97.278150780137906,25.236236163643898],[97.278150929425294,25.230882848540499],[97.268159343868604,25.200190281804801],[97.264233880552496,25.195193764622601],[97.259951494309206,25.191981676815001],[97.2556690487108,25.1909109152285],[97.246033529027201,25.189126254728201],[97.239966708912803,25.188412339626399],[97.236041146671099,25.186984699179799],[97.232829329559493,25.185557074921],[97.227833237756599,25.180917420411198],[97.225335255706895,25.176277823458001],[97.223550999901505,25.172352018399401],[97.222480530594794,25.166998679014199],[97.222480659197799,25.1623591396176],[97.235328858442898,25.134522199114802],[97.241395935763506,25.125957034524099],[97.257455714699304,25.108113020467201],[97.262452015145001,25.105258033652301],[97.266734511105398,25.1045443568708],[97.272087586089896,25.105258254885499],[97.278868172917896,25.105258411367501],[97.294570583762393,25.105258772894999],[97.302064927411493,25.104902057711399],[97.307774904638705,25.104545301159],[97.314198668364398,25.102761010279998],[97.317053790976999,25.0977646486804],[97.3170538997949,25.093838884091301],[97.316697155832998,25.089199335701501],[97.315626606486703,25.086701097345198],[97.308132431909996,25.080990720818999],[97.304206897547402,25.0784924168122],[97.294928229744301,25.077421540112599],[97.289575114290301,25.0781351926124],[97.284935725979807,25.079562637006699],[97.280653180556598,25.082060752156],[97.277084391954503,25.084201996539001],[97.2692330273523,25.0899120187321],[97.264950433365698,25.094194573148499],[97.261381594401598,25.098120255000001],[97.258169648686803,25.1013321710371],[97.253530240591203,25.103473390239099],[97.245322161704706,25.103473201381401],[97.240325970077095,25.102402423607199],[97.223196225454799,25.096691827646598],[97.214988314741504,25.090624548878001],[97.2092785353653,25.083843551959099],[97.207494308338099,25.078847084239499],[97.208208201856195,25.073493785323901],[97.209278949053399,25.068854270208899],[97.211063442279894,25.064214771281801],[97.213204817963799,25.059218392595199],[97.215346173862699,25.054935788716001],[97.219985670991207,25.049582579732501],[97.224268324333096,25.043158699994201],[97.228551026238307,25.0349503809887],[97.229621851676598,25.027455763046301],[97.229621980279504,25.0228162227504],[97.227837772138201,25.017105979324],[97.224626141186107,25.008897487648699],[97.217132142876693,24.996763134257499],[97.212849842968396,24.990339057567699],[97.208924367961004,24.985699427339501],[97.205355735840996,24.9821304687656],[97.172167340032701,24.953221806200499],[97.167884961883402,24.949652831438701],[97.149684683203205,24.940730224112801],[97.119707809529004,24.9239558196108],[97.113641085642101,24.919673029571999],[97.110072511978004,24.913962744776899],[97.059755699846093,24.830092987658901],[97.058328401141793,24.8229552000134],[97.049407802001994,24.777630253770202],[97.049408120362003,24.765852956405698],[97.050121972511306,24.761927207105],[97.052620334074803,24.7526481813718],[97.074034141276499,24.699829268295399],[97.096518259504293,24.658430785414598],[97.101514636392196,24.652720692174899],[97.1125781913249,24.634519660762201],[97.115790202690107,24.6288095270531],[97.116147171482496,24.6252406566127],[97.118289990578305,24.5663542048636],[97.106872091075005,24.489979936231901],[97.114011767296802,24.406825204878398],[97.126146828454495,24.3550767170419],[97.129715711485304,24.349366588728699],[97.135068933059401,24.344727163546001],[97.148273544416497,24.333307040918601],[97.154697384584793,24.328667639118301],[97.162191817266702,24.325098926059301],[97.166474371683194,24.322243916761298],[97.172184617807503,24.3118942913197],[97.176824196774305,24.303329081762801],[97.187887956752306,24.277276500487599],[97.190743206169202,24.267283698148098],[97.198238289898498,24.239089707772099],[97.195740704511806,24.219103919773499],[97.188246769154802,24.2037575658089],[97.185035050968594,24.198404173363699],[97.173258561195198,24.185912829596401],[97.154701543949102,24.170923119768901],[97.116873500825506,24.1509365519162],[97.105096823093902,24.1455829706134],[97.080472819358803,24.135946449984399],[97.0747628933931,24.1341618839128],[97.068339212404894,24.1327341904062],[97.060487990794897,24.1330909055898],[97.023729906163098,24.138443419397401],[97.017663032988693,24.139513949857999],[97.013380489364195,24.1420120731011],[97.008384170932104,24.1455808437168],[97.003744743950804,24.148435845820199],[96.999105335855106,24.150577073116001],[96.961276773822803,24.150576243041801],[96.956994341714207,24.148791709345801],[96.954139440334899,24.145579653913799],[96.950214075944203,24.136300478893101],[96.9487867223813,24.130947126917398],[96.945931847981598,24.126664407924999],[96.941649461738393,24.123095434062702],[96.936653273708103,24.1216677720323],[96.926303950438594,24.121667545403199],[96.918809492575605,24.126306926519],[96.914526939957796,24.129161937615699],[96.909887477003593,24.133444492032101],[96.887760773631996,24.155214178047899],[96.872057880750901,24.1734151231257],[96.864920250486705,24.179838951602601],[96.842793816911694,24.191258883573699],[96.836726917657003,24.193400078494001],[96.831016937731903,24.193756842241001],[96.824950020490803,24.196611813767401],[96.821024323350798,24.2001806077654],[96.794614922570602,24.230515507834699],[96.788191012255297,24.238010014261199],[96.758212259897405,24.2922563240679],[96.644725075529905,24.3518541215557],[96.637587568472796,24.353638405240101],[96.626524439818894,24.356136379195899],[96.616531994510296,24.356136160660501],[96.606182742287302,24.353637720856099],[96.596190362629201,24.351139288246099],[96.589766786861702,24.3457858310497],[96.584770694159502,24.340789292283802],[96.579774712973204,24.331510099276699],[96.570853201920798,24.3193757189058],[96.558005994627806,24.310810131633701],[96.510542668342396,24.280473636167098],[96.506617092610995,24.2794028880705],[96.499122740867904,24.280116501000101],[96.494126463804605,24.2822577202021],[96.487345775353205,24.2861833400002],[96.474141372638599,24.290108820403599],[96.469145151333393,24.290108712485001],[96.462721473942494,24.288681022575702],[96.456297897275704,24.283327566278601],[96.421682068764198,24.2501362503717],[96.357089789259902,24.182326171465501],[96.350309420067802,24.173760718192401],[96.3149801899674,24.126650764310501],[96.308199846855601,24.117014647477099],[96.303560678878995,24.109876791483099],[96.285718002113995,24.071332520201601],[96.284647545397704,24.0649085154574],[96.2628818325867,23.923937326819601],[96.262882073604899,23.914301352079001],[96.264666563234101,23.909304959003201],[96.266807918121003,23.904665460246601],[96.269306136805,23.900382857995599],[96.270019962873903,23.897170880804602],[96.270020096872898,23.8918175621038],[96.268592728920893,23.8868210997802],[96.231122745467303,23.819011594641498],[96.199005176895994,23.7783256895706],[96.194365870423795,23.7765411522773],[96.152255534586601,23.748703007582399],[96.149400664683498,23.744063403434598],[96.145118363875994,23.736925553735801],[96.143334121560301,23.731929085116999],[96.142263634267195,23.7265757421345],[96.140836404810699,23.7158690723573],[96.140836642231704,23.706233095818099],[96.1394094658352,23.6933850980211],[96.1383389605557,23.688745531644901],[96.133343158334498,23.671614802265001],[96.131558898032395,23.667332108453699],[96.127276586432899,23.660551146608299],[96.116213835494193,23.6477029473632],[96.111217690631307,23.6444908514617],[96.087664389127298,23.631285505358299],[96.041628691597296,23.593097531974902],[96.0316364971995,23.5827475719855],[96.025926683649104,23.5763234692153],[96.020930642208199,23.568828717273899],[96.015577788456895,23.558835741365399],[96.010938749982699,23.5459876761192],[96.003802455211698,23.497807641437699],[96.003088872859095,23.4910267533369],[95.995239994882297,23.394309918428299],[95.995240792580901,23.361119322878402],[95.989889053989003,23.304373997700999],[95.985607615631196,23.260833554576799],[95.978114808024102,23.196593527820301],[95.977759939148598,23.112011011229299],[95.977760032678106,23.108085240345002],[95.978831436380403,23.074894654687601],[95.980615920613701,23.069898255316499],[95.982757261224094,23.0656156388469],[95.982757547208493,23.053481437441199],[95.978476947918196,22.9735383739119],[95.978120225539996,22.967114377261701],[95.977406612610395,22.9614041500231],[95.969913385019893,22.9139378523777],[95.965631854931303,22.873252495893201],[95.965632013212002,22.8664716167855],[95.966345959790004,22.8579063101018],[95.967416870663897,22.845415238828998],[95.968130716517805,22.841132592681799],[95.969201436735403,22.8368499537292],[95.969201760491302,22.822931307660301],[95.969201943053704,22.815079763193701],[95.968489620651297,22.753694944485201],[95.968132871293406,22.748341611395201],[95.967062334537502,22.7447727058812],[95.959925007344907,22.738705461286902],[95.956713172246694,22.737634732076099],[95.949932611498994,22.736207043066099],[95.945293257362707,22.736206951335198],[95.937085170382304,22.736206787658599],[95.932802698703597,22.735849814369601],[95.927806521465001,22.7337083838271],[95.908178693169802,22.724785783695701],[95.903896270953695,22.722287480588101],[95.902111961188893,22.719789226044],[95.899257098480405,22.714435843491302],[95.899257205499794,22.7097962942021],[95.899614185084104,22.705156752107602],[95.905324923137599,22.6719662419932],[95.906395601087098,22.669468044106299],[95.963854322457294,22.5777488469353],[95.979200378746299,22.5559789522767],[95.9981154556625,22.521718028613702],[96.002041333566197,22.509940784309201],[96.003112108642298,22.5031599240872],[96.004182933181298,22.494237731348701],[96.000616322737201,22.401089746196199],[95.988126398999398,22.372538413950998],[95.988128023174895,22.300803803426302],[95.990626242645504,22.296164300002498],[95.996693141000904,22.294023087095901],[96.004187533213397,22.291881902068098],[96.013823610476706,22.270111883303201],[96.010969942068002,22.2115820873824],[96.007759378611098,22.153766057275998],[96.007045855613796,22.1437731596085],[96.026319232318997,22.0452722442623],[96.0306019540092,22.0345656644174],[96.034170801067305,22.0295692902273],[96.038810262222896,22.0249298263738],[96.043449706291398,22.021004140025699],[96.047018538060897,22.0167215442405],[96.050230496366098,22.012438940361299],[96.052371857661001,22.007085650438899],[96.054513234244197,22.0010185830109],[96.055940847711199,21.995665278699398],[96.055940983508805,21.989598169003202],[96.055941126500997,21.983174170554399],[96.054870648201103,21.976750151421101],[96.053443280249098,21.971039903498198],[96.042737618611994,21.946414369116901],[96.039525882439193,21.940704086120299],[96.037027861718798,21.936421371624601],[95.997773047793004,21.878247738703799],[95.990278913685898,21.86861159579],[95.987423971120606,21.866470208267],[95.938175738637099,21.851479932913801],[95.931038265754196,21.8514797962169],[95.922473274732695,21.852550298798601],[95.916763226459096,21.8557621887553],[95.912480648660406,21.860044771950101],[95.909982399512103,21.866111833982099],[95.907127316469797,21.870394445055801],[95.902487833730405,21.876104576966199],[95.888212622664796,21.888238522964599],[95.8810750328701,21.893591717558898],[95.873580592993505,21.897874239599702],[95.865729295840396,21.901442976940402],[95.856450527313299,21.903941021043298],[95.797209261547295,21.915360328884798],[95.723693050915102,21.927136254783299],[95.713700592116695,21.927136064127001],[95.600571787577806,21.922494361860899],[95.523130619947807,21.905005350678401],[95.513138263672005,21.900365609833699],[95.507071475933202,21.897510385597801],[95.498506674668505,21.890015562610099],[95.492439972365304,21.883234562993199],[95.457467372912305,21.836838376724302],[95.441408527472703,21.815424754782899],[95.438196788601999,21.809714475383601],[95.435341977154906,21.801505981909699],[95.4339146208941,21.795081958279901],[95.431773739837197,21.778308149129],[95.431773938587398,21.7690290424568],[95.419997526155797,21.749756832172199],[95.416785771097196,21.744760330278499],[95.412860285297995,21.739050037389401],[95.401797397662307,21.730127613525202],[95.395730616218799,21.726915501435801],[95.388950073457494,21.724417154261499],[95.383597077613402,21.719420612797599],[95.378957836791699,21.714067195171399],[95.369679445080493,21.699077696684601],[95.353621623069301,21.6291272052684],[95.3461280573338,21.592367524340101],[95.345057677959204,21.580947064467001],[95.339348273600294,21.553823412238501],[95.324717750293402,21.492438269774102],[95.307588156757305,21.4763779584395],[95.289387621609904,21.475663846508201],[95.275827016485806,21.447469382209501],[95.241568020069806,21.406069652868201],[95.230148133963993,21.402857444551401],[95.215873332989304,21.396076296546401],[95.204453579983294,21.3864400906801],[95.193747610778004,21.375019453640501],[95.183398604069893,21.359316156963899],[95.170908370066002,21.342899044110901],[95.156276783760404,21.331835224777599],[95.115593605433901,21.312205602334899],[95.082047714729796,21.3014983309114],[95.066702182745502,21.3000704989092],[95.052070368012195,21.300070235407901],[95.045289756902505,21.300783890605601],[95.036367904107806,21.3014975071324],[95.017810482166695,21.301497173483899],[95.010673121699199,21.296143712690299],[95.005677112633904,21.285436958376899],[95.004963489811701,21.2793698360903],[95.004963642696396,21.271875170483799],[95.005320647461701,21.265451178330299],[95.001395425163906,21.24653600069],[94.993901264077095,21.237613645174299],[94.987120776174507,21.2322601915752],[94.981767717377807,21.2301187628313],[94.959641683101694,21.2240512565341],[94.950363008104205,21.222266646395799],[94.939299937006794,21.2219095588929],[94.929307522275096,21.2197680474113],[94.911107061032695,21.215485056823699],[94.901114697562406,21.210845324072899],[94.890765475017005,21.205491807521199],[94.876490723504801,21.196212443642999],[94.846870621671599,21.176583031641599],[94.840447036011497,21.169802030226101],[94.836521557406897,21.1633779616302],[94.832952944172604,21.157310788082199],[94.830098085960699,21.1508867392713],[94.827600108407793,21.1441058071036],[94.826172708080094,21.139466227237499],[94.825816566663903,21.103063560067699],[94.826530972795595,21.070229798411798],[94.826888147532799,21.055240471695601],[94.829387047790206,21.0159827403692],[94.832600034919807,20.959594350709398],[94.829745431216097,20.940322299604901],[94.826890612574502,20.9317569146802],[94.818682876329603,20.913912325057201],[94.812973111342501,20.903205556354699],[94.808690763770201,20.8964245918114],[94.801910356806601,20.8867884722799],[94.795129914769404,20.878936796512299],[94.784780786652803,20.868586836522802],[94.776215983589495,20.860378241425501],[94.764439332837497,20.851455812165401],[94.748737051495397,20.843603981714299],[94.725897369216199,20.8321831378307],[94.712336300780805,20.825758901061501],[94.706983331017,20.818977917632399],[94.701274111019103,20.780433812725398],[94.707341269278601,20.764730803831899],[94.729825240916796,20.716908069792701],[94.784786250034202,20.590213415123099],[94.797277514661104,20.554881612062399],[94.799775831258501,20.544531871507498],[94.800489737367002,20.5363234346909],[94.800846763716095,20.528471880331701],[94.800847005633699,20.5159807613949],[94.803345377989103,20.50277590812],[94.805129926074201,20.493496821232899],[94.807985094552095,20.484217753231601],[94.812267745195996,20.475652487916701],[94.817977917575902,20.465659690973201],[94.824758717543304,20.455310022364099],[94.830825742703198,20.446387897974098],[94.843316556769807,20.434253880929401],[94.851167881801899,20.428900679140401],[94.859733050889204,20.418551040209],[94.877577185455294,20.395353550069999],[94.891138848342607,20.371442207781701],[94.894707792527399,20.3607355928633],[94.908270170375602,20.299707769027499],[94.908270253113201,20.295425097699301],[94.908270349340697,20.2904286488655],[94.903274404127302,20.2754392151299],[94.900062684142299,20.267944485671599],[94.895780506541897,20.251884396469599],[94.894710281850706,20.231184801146],[94.895067332481403,20.221905686379898],[94.898637140914801,20.165874130614199],[94.903990581023905,20.148386646480599],[94.919693613299899,20.117694432279102],[94.931113860933095,20.102705274635401],[94.956095389241597,20.083790563743399],[94.9753668081227,20.071656652818699],[94.986430161607103,20.057738155138001],[95.043531534671104,19.976011452738199],[95.041391136550203,19.931400238135101],[95.037822525114507,19.9246192780884],[95.037465746079107,19.919622820261399],[95.038179574845898,19.9153401588257],[95.040320912758403,19.910343742367498],[95.052454733750906,19.904633716577099],[95.058521610522604,19.903563150143501],[95.069941596453006,19.9024926754409],[95.079220325410006,19.9021359422708],[95.099562227986993,19.8974967239322],[95.119547351528595,19.887861045967899],[95.127398672963395,19.882864726636502],[95.135250136490995,19.870373727309499],[95.143815401805796,19.855027623356499],[95.159161670334797,19.818625152238798],[95.162016817229002,19.8104167415025],[95.164158182121099,19.8039927664361],[95.164158269355397,19.7993532027578],[95.160232958024594,19.783293107260501],[95.155236977737601,19.769731219542699],[95.151668351912804,19.763664037900899],[95.150598754948405,19.709059916637099],[95.1548813903038,19.701208418035801],[95.165231144348496,19.679438327325101],[95.170584481935094,19.667304170885402],[95.175580932567499,19.655883787454702],[95.177722323539896,19.648032251981299],[95.178793145380894,19.637325582204198],[95.178793352225,19.626262003889199],[95.175225435965203,19.5820076303748],[95.170230406261595,19.517053630060499],[95.169873802593898,19.502421148030201],[95.169874014833894,19.491000678264498],[95.172372496007299,19.4713717869707],[95.175584567627197,19.460308259917099],[95.182008538196996,19.447460337663099],[95.192001250604207,19.4346124747643],[95.195927036776993,19.4253334076624],[95.202351244767897,19.3996374543364],[95.204492771538,19.384291230773499],[95.204493119575602,19.365376074716998],[95.204136495223494,19.351814258945002],[95.2034229497431,19.3407506644423],[95.201995741870405,19.325047491872098],[95.199497891121794,19.310414970271601],[95.192360846316205,19.2865032376776],[95.188078532018807,19.2768671424279],[95.183796206030195,19.267944827381601],[95.181655117229994,19.259379437960298],[95.179870935168907,19.249029604775298],[95.175232461468994,19.200135625314399],[95.175589731534203,19.178365352940698],[95.177731242116494,19.1637329050847],[95.177731435470704,19.153026210126502],[95.175947181463897,19.146602164013601],[95.160959021168296,19.115909393131901],[95.140974685432894,19.0816476411932],[95.129198158787304,19.063802957141299],[95.120276573091303,19.0488134379702],[95.115637491449604,19.033110208742698],[95.112782856269604,19.013124329770701],[95.112782965087504,19.0070572011888],[95.145259985479498,18.924973049758702],[95.149542635223995,18.916050870509999],[95.156323449580498,18.904630502367699],[95.162390457653203,18.896422132100898],[95.172739963485,18.887856940530501],[95.189156433322793,18.873581607157],[95.196294033010105,18.867157703137],[95.203431638992498,18.860376908565598],[95.208428012283207,18.852882300515802],[95.210926265928094,18.845387651097099],[95.211641162190205,18.780790573709702],[95.210570691084797,18.772225195979701],[95.205218246525106,18.734394767854099],[95.203077164919407,18.7251155928335],[95.199508585859405,18.715836394430401],[95.194512452687604,18.709769184010199],[95.1873750292675,18.706200168778999],[95.180594436144204,18.705129390105501],[95.172029446921201,18.705486143060501],[95.162036986324097,18.7044153131257],[95.151330801281603,18.7019169119921],[95.137769672591702,18.696563345078399],[95.127777292933601,18.690852945170001],[95.120996787943795,18.684785706870802],[95.113859433771495,18.677290901869501],[95.105651576118206,18.663015170096401],[95.073891005117602,18.591993547472399],[95.067110847266207,18.565940466174101],[95.067110995654303,18.557375104631799],[95.067111101774302,18.5513079733519],[95.069966201004405,18.545240887038201],[95.0742487985884,18.539173823207499],[95.078174502023501,18.534177424735901],[95.082457074426301,18.529537921312102],[95.089237810541803,18.5224002262967],[95.098159767657904,18.5166901258625],[95.155617017737399,18.488853605343099],[95.189164334766204,18.4239001293335],[95.193090039100696,18.4189037290631],[95.198086372821194,18.413550455328501],[95.358325913652095,18.244387011248801],[95.382593599703895,18.231539342603501],[95.399367665161506,18.175507825508699],[95.396512834828698,18.165871741950198],[95.396869826104194,18.1590908313662],[95.399011183801704,18.152666838313301],[95.402223201462206,18.144101519938399],[95.416498811826798,18.107342036860899],[95.419710811500906,18.099847389240999],[95.4225659116304,18.093780297531399],[95.441123967593398,18.059876000918202],[95.4625371299813,18.0195477193462],[95.466462987200501,18.005629054391498],[95.46646313379,17.997063683855998],[95.464679956271695,17.926756237137301],[95.461238285039798,17.904210379552801]]},"properties":{"FID":2,"FID_1":25,"Id":0,"Name":"Ayeyarwady River","InLine_FID":24,"SimLnFLag":1,"MYA":"{&m0wDjrpf","Class":"Major","Shape__Len":1302469.5290300001}},{"type":"Feature","id":3,"geometry":{"type":"LineString","coordinates":[[98.107653689886405,27.713697916893999],[98.104798805482005,27.710842749145701],[98.100992246077794,27.708463405603698],[98.098137314809406,27.707035784654],[98.093616964050995,27.7060839693787],[98.070539357365803,27.702038654411101],[98.066494797384806,27.702276473919898],[98.062926051506494,27.7029901546986],[98.060308941600596,27.704417633536298],[98.054361070824697,27.704417479251902],[98.049602805385305,27.703465658037501],[98.030331914512502,27.697041198338699],[98.027001270293596,27.692044698576201],[98.025573882423998,27.6889516437267],[98.025098114969396,27.687048235781401],[98.025098223803994,27.683717293429101],[98.025336379559207,27.676341641468099],[98.077920058080394,27.538346799808199],[98.079585570483502,27.535015899626298],[98.093622958520299,27.522406262621701],[98.0998089080407,27.5174100073734],[98.100760637170595,27.515268711232402],[98.101712397204096,27.512175716982799],[98.108137735659696,27.4617358815179],[98.112897350824994,27.421050906115202],[98.113611226373294,27.417006207015699],[98.1148008856145,27.414389067495399],[98.1450174432766,27.372277196507799],[98.191413171328804,27.300663086892801],[98.194506257739604,27.294715051110501],[98.202120035402103,27.2792501467354],[98.204499346175695,27.274253790843101],[98.209020167556702,27.260692203384199],[98.214016902964502,27.244513456842],[98.214016994770006,27.241658361225099],[98.2137791868562,27.2383274102142],[98.213065625379798,27.2326172005945],[98.212351972110298,27.229762086607899],[98.211162488811993,27.226906960398701],[98.210448804937201,27.225003544959499],[98.209973043701396,27.222862210984498],[98.210448934842503,27.220958826071499],[98.211400648354996,27.219293378006501],[98.281587986440599,27.144348911106299],[98.296101086798103,27.135546070349999],[98.304904104069493,27.130549877904301],[98.308234991182104,27.128170716522199],[98.313469282735099,27.1231744323755],[98.3170381536343,27.118653954804799],[98.320131186791897,27.114371389671],[98.337262032703705,27.084393316614001],[98.338689629869904,27.0810624072823],[98.357962472534894,27.027291914104399],[98.3615321186156,26.998503112132799],[98.369385584316205,26.927363810892601],[98.385804945858595,26.826008270793199],[98.375339758260196,26.7284588286632],[98.343225533382906,26.590461601105002],[98.341560208599205,26.587844385486399],[98.337753632021304,26.585702965588101],[98.332757486792403,26.583323590833601],[98.319434494615507,26.5749958844048],[98.316579571405995,26.573092413482701],[98.315152176524506,26.569999354179899],[98.298975651355505,26.515038299949399],[98.295645214872096,26.5029040469691],[98.293504221402998,26.4950524717996],[98.289460311448906,26.474114979552802],[98.287557380038294,26.461504912143202],[98.2870816894726,26.456984327075499],[98.284703434575107,26.427957428801001],[98.284703559520693,26.423912705295098],[98.285417437519399,26.419630074722701],[98.287796700176301,26.4160612605613],[98.289938076973598,26.411540740746201],[98.292555372390694,26.404165133758301],[98.302073391179604,26.3584837854252],[98.301121876664197,26.353725262876399],[98.300170318156603,26.350394289944699],[98.276381347662806,26.267119963857098],[98.244503452209898,26.176945607315201],[98.236652840909201,26.1574355639485],[98.210959634229496,26.103188029863698],[98.196923358169897,26.079157258213701],[98.172182132082199,26.0139651954876],[98.16219066155,25.981607146657002],[98.136973775486197,25.910229017391998],[98.130312508622396,25.8980946770698],[98.125078648222896,25.8888154722165],[98.052993044395706,25.796498793770699],[98.049900250608502,25.792929842684],[97.962111139889103,25.737015326393301],[97.942126580429303,25.725832365935702],[97.885742466050004,25.663732565527301],[97.866710038085202,25.636370725012299],[97.864093066511998,25.6330397111645],[97.821983304879097,25.589974263452699],[97.819842115196906,25.5883087366953],[97.816511328066099,25.587356956775501],[97.809849726177603,25.5864050973092],[97.806756833675706,25.586167098358299],[97.798191881512807,25.586166893844499],[97.796050629672095,25.5866426928857],[97.742042815095999,25.622330164321699],[97.728957203707694,25.631608929303699],[97.6980269505124,25.6751484739974],[97.696599382731705,25.677765615271198],[97.690651182489006,25.688710024600201],[97.689699417601204,25.692278877256701],[97.689699362257102,25.694182277447201],[97.6906509195952,25.6977511755119],[97.691602483828802,25.7010821485446],[97.691602400765802,25.7039372487992],[97.690650670421505,25.706316476274299],[97.688509363685498,25.708695675327501],[97.686368091573996,25.709885249280301],[97.683275158367607,25.711074800504498],[97.670665538114804,25.714881299672602],[97.668286378481994,25.715119167891402],[97.664955564695802,25.715119088388001],[97.648777478593104,25.709884352165499],[97.618800410847101,25.701080412446998],[97.581447846400096,25.6965589485355],[97.577403287094398,25.696558852373801],[97.574310333694598,25.698462178838501],[97.572169013751207,25.701317227908799],[97.569789750999206,25.705123971288],[97.525061554573895,25.7096434835221],[97.504037838655606,25.710544997742801]]},"properties":{"FID":3,"FID_1":26,"Id":0,"Name":"May Kha River","InLine_FID":25,"SimLnFLag":1,"MYA":"arcjrpf","Class":"Major","Shape__Len":347071.95668599999}},{"type":"Feature","id":4,"geometry":{"type":"LineString","coordinates":[[97.406109098681398,27.698882968747299],[97.4011129515318,27.6969794476888],[97.376608932407294,27.659624708712101],[97.375895241447495,27.6579592203678],[97.374705781753093,27.654390325349699],[97.373992915911998,27.626791084257601],[97.374707642638896,27.5958609372375],[97.388983927978899,27.551607365857802],[97.390411499135197,27.5489902337372],[97.453938246410402,27.4378811400567],[97.4556037022721,27.436215711000301],[97.469403066165796,27.426461156680201],[97.500570561719101,27.405524590672499],[97.536496497677504,27.380067579077899],[97.537448179378202,27.379353829672699],[97.562429931717304,27.357227483814999],[97.575040280116994,27.329866487033701],[97.583844073576998,27.299888223704201],[97.579324433558895,27.276333585441801],[97.584083149321401,27.263009933121999],[97.590031304522498,27.253968951430899],[97.612871675553095,27.236601035949999],[97.616202558247295,27.234221874476201],[97.696856887695702,27.196393902159802],[97.718031492193305,27.1906842460516],[97.720886538286194,27.188542996985301],[97.741109851183694,27.171175013655201],[97.742775337879294,27.16855788542],[97.743013372611799,27.1647510984054],[97.742061855269696,27.160230507724499],[97.740634478138603,27.156661603309701],[97.727787791228295,27.133820521583502],[97.715654758158095,27.113834552627701],[97.714703240267198,27.109313961807601],[97.717082531093098,27.104793454587298],[97.7194617771721,27.101700494801399],[97.728978590062297,27.094800920888002],[97.743253783618897,27.085284295908],[97.7480121641549,27.082667244923901],[97.752532585052904,27.081477735508599],[97.745395882504695,27.057685096791001],[97.724461100213404,27.002248139152499],[97.709236469206303,26.9403873573463],[97.706619921904903,26.923732567879],[97.706620076977799,26.918736150560498],[97.714711735633998,26.836414423467598],[97.715663557346801,26.831180104530901],[97.716377397881601,26.828087101630601],[97.717567046332604,26.825707884548599],[97.718994617122107,26.823090748703699],[97.738504455029002,26.796919519623199],[97.7427869911876,26.7947783039717],[97.748496988025707,26.793588822549399],[97.751114053088102,26.793588887637799],[97.754920737281594,26.792161434212101],[97.758013727909898,26.789068490225102],[97.759441291440893,26.786689278857001],[97.763723989384701,26.779313719992199],[97.766103279078706,26.774793210009499],[97.767054997893297,26.772889836127298],[97.768482583457001,26.769796850595402],[97.769434368349494,26.765752154426199],[97.769434456444699,26.762897058058599],[97.758256064319596,26.645361971235602],[97.757066627619096,26.6408413718536],[97.734466458447201,26.583263025939001],[97.732801111131806,26.581359586858699],[97.725663739242407,26.578742238555702],[97.723046702641398,26.577790475020201],[97.719715884587899,26.578028317629901],[97.716147136980695,26.5787420038744],[97.712816246400806,26.5813590939484],[97.710436965253805,26.5856416806708],[97.708295555606597,26.5913518216657],[97.706630077672102,26.593731027994401],[97.702823400606505,26.594920557820402],[97.698540951531598,26.5942066780222],[97.696161880883295,26.591589447261399],[97.696161953433403,26.589210199880601],[97.697828228716702,26.560659271721999],[97.699255813222507,26.557566285139099],[97.707345251144901,26.546859870474002],[97.712103711709503,26.541625643001101],[97.810602302302996,26.4842881989725],[97.805420805047802,26.453470330838901],[97.756651799637893,26.334744648822099],[97.734763951831795,26.323323721319198],[97.6928910761102,26.317136652743098],[97.722393981328807,26.269552405565801],[97.749994434970404,26.192941272964799],[97.751184138943898,26.188658654146799],[97.751184210119305,26.186279405363301],[97.750232677532907,26.181996734364201],[97.748567342489096,26.179617445019801],[97.746901993205199,26.177714005438499],[97.742619605485999,26.174858802651901],[97.741192142908403,26.173907068395501],[97.738337203529397,26.172479449652901],[97.696940546685497,26.152968603584899],[97.646979282857103,26.122037158484101],[97.625092090042997,26.0882512961701],[97.5986849066107,26.040903606233599],[97.597257696423895,26.031386576036901],[97.595116852774296,26.018062730163901],[97.579415627746002,25.9780909685457],[97.578226121782507,25.9757116908726],[97.576322884246594,25.972856546238202],[97.572754205474496,25.971190986183601],[97.568947611518695,25.969525420436899],[97.564189321908898,25.969049456425999],[97.561572254946498,25.969049393630701],[97.558717265828193,25.969287250042498],[97.556576015264298,25.969763048490702],[97.534925985651398,25.961197232735199],[97.500429524965796,25.9188457732903],[97.489468353745096,25.833836988520101],[97.488743250181301,25.7984971914154],[97.492616562138593,25.7771965934405],[97.493342790533504,25.7738078644912],[97.501815206740105,25.7428252424404],[97.504037838655606,25.710544997742801]]},"properties":{"FID":4,"FID_1":27,"Id":0,"Name":"Mali Kha River","InLine_FID":26,"SimLnFLag":1,"MYA":"rvdcjrpf","Class":"Major","Shape__Len":307574.71974899998}},{"type":"Feature","id":5,"geometry":{"type":"LineString","coordinates":[[96.413489268918198,26.526329580634499],[96.418258789515804,26.5299096778439],[96.417782863604501,26.533240609737],[96.4165931314473,26.5387128453979],[96.411834740147199,26.542043676920301],[96.404935088682095,26.5463261562534],[96.396845918729795,26.548705211757099],[96.391135971967103,26.548467153573799],[96.384712336104101,26.546325682787501],[96.379240386700104,26.543232536355401],[96.3747201374741,26.5387118652726],[96.370675772657094,26.532287809395601],[96.367582984212902,26.528718869692899],[96.363538474962198,26.5272912282074],[96.298586684640895,26.564405930490601],[96.289545740416997,26.570829680126199],[96.285976896271706,26.575112237208099],[96.285500915778499,26.580346564277399],[96.287879932255294,26.584867184571699],[96.291448529052602,26.589149908179799],[96.298347828433293,26.5970015764971],[96.301678475985995,26.6024739168707],[96.306198139048902,26.6272181658085],[96.304056748310302,26.632690378049801],[96.300249947844605,26.6384004757114],[96.295015762683903,26.640541673248499],[96.287402472075101,26.641255268478702],[96.281930468796304,26.640065518292499],[96.275744776577397,26.6369723559257],[96.270986572432506,26.633879226970699],[96.267417955437097,26.630310276954901],[96.2662284783557,26.6269793069687],[96.266228581548305,26.6234104403147],[96.267180315950696,26.620793293649601],[96.245532452528593,26.538470927115402],[96.237445087415395,26.478037922226399],[96.236732848108502,26.4254565927036],[96.237446741881897,26.420222270188798],[96.237446898217399,26.414750006596101],[96.218890959876305,26.365261279051399],[96.215084452660307,26.360740625289498],[96.2105641673175,26.357409577652799],[96.204140570769297,26.3538405615956],[96.197003202916406,26.351223227199199],[96.187724555084003,26.350271315102098],[96.1822525025744,26.350747037947301],[96.172735838778294,26.3533639881943],[96.164646697289996,26.354791348823099],[96.1575092688403,26.354315335348801],[96.150371880938394,26.352411774880501],[96.145375772850002,26.348842792217901],[96.141569272102402,26.344084214425099],[96.139190246192499,26.339801518508299],[96.138476630099305,26.335280936389101],[96.139190475406593,26.331712085132398],[96.141093901111205,26.3279053367025],[96.144424795013293,26.324812394624999],[96.155606935973097,26.319578312482399],[96.170595773742406,26.312202997217799],[96.174164582580502,26.3091100605258],[96.177257609131303,26.304351641166001],[96.177971461223095,26.300544865128099],[96.180351107274106,26.282938504444399],[96.180351228471494,26.278655862788899],[96.177972154949202,26.2760386381693],[96.173213940567393,26.2731834343268],[96.167741981896697,26.270328214114802],[96.162269996313597,26.268424692092701],[96.155608423516199,26.266996991863],[96.128962065398198,26.2636654368014],[96.123727940940199,26.2636653167521],[96.119921251298095,26.265568625698702],[96.114687006102301,26.269851147187602],[96.111118170859498,26.273895782302901],[96.109452633418201,26.278654234600399],[96.108024943551399,26.285791937527001],[96.104456128479001,26.289122798953201],[96.098508206380302,26.2910260586889],[96.094463635767198,26.291739739494801],[96.089229518368796,26.2915016949771],[96.038078548563405,26.266756374563599],[96.036175284268595,26.2648529349526],[96.035699515010904,26.262711603451901],[96.027849577844705,26.2182195388412],[96.018809391003899,26.1977578232196],[95.984788195319396,26.175867991953702],[95.959807486529797,26.163733273292099],[95.957190450973101,26.162781515757398],[95.952908078575305,26.159450475125301],[95.948863627509297,26.155881515384198],[95.887959601415702,26.0785546623624],[95.886056388814396,26.074747826693201],[95.885580658052305,26.071178947769798],[95.885343039358801,26.0604723377417],[95.885818967496903,26.056903480217098],[95.887722495871301,26.049289937457502],[95.887722640473896,26.044055597257799],[95.8772552382556,26.0133630933341],[95.875352005457799,26.010270031176699],[95.872734995590207,26.008366575781601],[95.868452516880595,26.008842328566601],[95.843233402546602,26.014314026369998],[95.837523383134297,26.016693143593901],[95.778520083486896,26.032870687968401],[95.710476584574806,26.028824446771001],[95.670507115392695,26.021447893379101],[95.667176335547595,26.020496120942401],[95.663845594726993,26.018116801394601],[95.654091319370096,26.0097892255401],[95.649095272980702,26.003841001088698],[95.600324480896703,25.9405519917166],[95.596755915242994,25.934841723698799],[95.593187452766202,25.925324663098799],[95.590332734239396,25.9158076182656],[95.583196149563506,25.884163495829402],[95.5855757150009,25.868698452678899],[95.567257295690496,25.8311059676534],[95.529905815792603,25.7889924961719],[95.473996587460405,25.7616299422602],[95.471141668009807,25.759488558531199],[95.456867191344003,25.744261073261502],[95.449967880213293,25.736171486779799],[95.447350926137901,25.732126711785199],[95.418326570878307,25.685492860514799],[95.416185471071799,25.680496397590002],[95.414520181720704,25.676213718781099],[95.413568661821898,25.670979357197901],[95.4138066902986,25.666696719870998],[95.422848050507397,25.644094081022502],[95.425465232671897,25.639573570775301],[95.430937480211497,25.631722178344798],[95.433554624531794,25.628629215593399],[95.431414331044707,25.593178402649102],[95.417616532216996,25.545593179082399],[95.413096277098603,25.540834588441498],[95.406434807793005,25.5353621774799],[95.399059562751205,25.531079374220901],[95.391446308906296,25.5303654352428],[95.379313050176506,25.515375920916899],[95.384310654329795,25.462318835431699],[95.388118257631803,25.425440596938301],[95.389783735973595,25.4225855370236],[95.389783841877204,25.418540817836799],[95.3890702282701,25.413544384579101],[95.387642832868394,25.409975483856499],[95.374558103500107,25.387610283263601],[95.371227426744596,25.382613793492901],[95.292955165513007,25.316944902824201],[95.288196931171598,25.3145655541616],[95.243469527848106,25.292199678225799],[95.2065932013778,25.2741166163533],[95.174475053829397,25.260554226227399],[95.170668392723002,25.261505843911799],[95.161389716019997,25.2615056465587],[95.155917694302303,25.2607917562136],[95.150683611848194,25.259126172301301],[95.144022071259002,25.256270934775099],[95.078120676864799,25.2172498927034],[95.076455364639401,25.213680987509601],[95.072887110895493,25.195360712682302],[95.071459810447607,25.1879850177245],[95.070270424691003,25.1806093277381],[95.062658205998005,25.139210272824801],[95.047908648891195,25.093528421486202],[95.0443400233777,25.089721551278299],[95.038630188715302,25.084962937283599],[95.020548880657998,25.076397268330201],[95.006274149119506,25.070210926624],[94.993664803088194,25.064738394183099],[94.990572006876505,25.060931534214902],[94.988668826677696,25.0554592262935],[94.9889068556041,25.0509386620007],[94.989858688955096,25.044038865613398],[94.991762157466596,25.038090787897598],[94.993427759156702,25.030239307486799],[94.994141695558199,25.022625731767601],[94.994141875467903,25.015487990452399],[94.9920013011902,24.9893162269626],[94.990098120321207,24.983843918621499],[94.9860536701309,24.979799113860601],[94.981533390262598,24.9757542991814],[94.975823518330301,24.972423233860699],[94.970827337047695,24.9712335059716],[94.963927783481196,24.9721850608822],[94.959883195789999,24.973612524815302],[94.881134946656104,24.911512534452601],[94.878993790478404,24.908419468632498],[94.875425281785596,24.899854104538498],[94.874473752940702,24.894619740826101],[94.874474061033695,24.882247654899501],[94.875901674312999,24.877251265091999],[94.878043020197595,24.872730739494202],[94.8813739461133,24.867972313757299],[94.885180660253994,24.8648793710029],[94.888511521087906,24.862738117335699],[94.893983585782195,24.861786531723599],[94.899455626824505,24.861786645098601],[94.907068925062802,24.860835103905899],[94.913492655133894,24.859645613342899],[94.917775187310298,24.857028529920399],[94.921581925401398,24.852983888127099],[94.940377831678106,24.827526329018902],[94.940615947830295,24.819436892043701],[94.937047408549404,24.812061150412902],[94.909687998286998,24.779940740698201],[94.905405619433296,24.776371780656898],[94.900171587037505,24.772564876213298],[94.889703522139598,24.764951067434101],[94.884707386826804,24.7618579423197],[94.877807950347304,24.758051003674201],[94.833318209024995,24.744488375489802],[94.825942889979601,24.7428227504261],[94.785735446402498,24.736160031018901],[94.780501337612407,24.735446149326101],[94.7700330966846,24.734970085061502],[94.764561055576294,24.734969972846901],[94.741483463343897,24.7290213810357],[94.687955544706995,24.609582054625701],[94.679629045797597,24.5881686547004],[94.678201672313904,24.5834101299384],[94.677963890369995,24.577937854944999],[94.6779640116834,24.572941434328801],[94.680819163171805,24.5658037484883],[94.687718971124397,24.554383498276501],[94.692715321707098,24.5486734044642],[94.697711637698802,24.5443908594156],[94.701994174508101,24.541535848681999],[94.709845474756506,24.537015436729199],[94.713652205008202,24.533208717056699],[94.733638092918596,24.490382655145702],[94.736255294976303,24.4846725123361],[94.738396713342993,24.477058961151801],[94.738396863103802,24.470872915464302],[94.738159097923003,24.464686864903399],[94.736493808802905,24.459928334394601],[94.733401047540596,24.454456000430401],[94.743870130867705,24.420195034653201],[94.7762277015309,24.3728486418782],[94.7838412143374,24.363093876045401],[94.798116431350294,24.3497703715658],[94.803112753945797,24.345249899846401],[94.809298628328094,24.341681151714901],[94.815960338390894,24.337874488305498],[94.824763288748102,24.333829943330699],[94.832376641548706,24.330737073843501],[94.8378487886052,24.326454536498499],[94.839990160846199,24.320744382263001],[94.840941969789199,24.3145583540804],[94.839752601449703,24.305993033450999],[94.837849448023604,24.299093172656701],[94.834756719735097,24.292193287767699],[94.830712331525007,24.2852933836215],[94.827381619426305,24.281248592827101],[94.822147593358196,24.276965838683701],[94.815961901706004,24.272920990271501],[94.807634981134498,24.268638173786201],[94.800735527415696,24.265307085829001],[94.793360215235197,24.263165612892202],[94.784319481290098,24.261737881182398],[94.767903326965893,24.262689250063801],[94.761003747910394,24.2645925103533],[94.756721273200597,24.264830349029801],[94.729837101082595,24.255788661897899],[94.721985982005805,24.2526954803945],[94.714372794915604,24.248888529047701],[94.706997534101404,24.244605732752699],[94.699146460406695,24.239609152281801],[94.694150331858694,24.236040178550901],[94.689154237316799,24.2310436554476],[94.687013099290894,24.2269988891988],[94.685109898844104,24.222002428101501],[94.685110063203695,24.215102605879601],[94.685348193420793,24.206061464189698],[94.686062091149594,24.199637505932799],[94.687013920761601,24.1924997776396],[94.687014237605496,24.179175982412101],[94.686776503603895,24.171562380276001],[94.686062945267693,24.163710843631399],[94.6836839652115,24.156573048399501],[94.681304968123797,24.150149027906899],[94.678687999567302,24.146104251897299],[94.676070997122395,24.143487025445701],[94.671074805618801,24.1425352259829],[94.664413186892403,24.1425350930053],[94.659179018455404,24.144200463010002],[94.638718163724306,24.151337802415199],[94.634435649626695,24.153241116339402],[94.6296772267808,24.158475369560399],[94.6275358683137,24.1637096749173],[94.626584078894595,24.169181928861299],[94.624442703483098,24.175130008840199],[94.621111792862294,24.179412590691499],[94.616353432136094,24.1820296697089],[94.611595122197599,24.1825054246031],[94.606598902990598,24.182743249867801],[94.601840626920193,24.181791455394301],[94.597796146358903,24.178698351069599],[94.595179177886195,24.174653575602701],[94.5930380448699,24.170370884712302],[94.592324440807701,24.164422747917602],[94.592562479547496,24.1591884047475],[94.593514274311005,24.153478225932702],[94.595893575539705,24.147054300749598],[94.598986621570901,24.1406303896979],[94.603031282391001,24.136109896828099],[94.607313824448397,24.1330169581531],[94.611358445969799,24.130161939643699],[94.615403090008797,24.126355221439599],[94.618258142467198,24.1232622542943],[94.6215890754317,24.1180279722889],[94.621589187840698,24.1132694737958],[94.605412378532407,24.0535499941005],[94.602081630624696,24.0509327536741],[94.551168254059505,24.0328494498841],[94.546885784871705,24.0328493651967],[94.544982532152005,24.029994228320401],[94.544506802591698,24.025711570031401],[94.544744817873905,24.021428925826999],[94.545696605867093,24.015956670992502],[94.546886280941095,24.011674045529599],[94.549027615846896,24.0073914388364],[94.551882695639605,24.003108846208502],[94.554023991567803,24.000491714084699],[94.558782396671205,23.995971234047399],[94.583050174760203,23.976699792112498],[94.595659841240007,23.9693243674601],[94.603035289216805,23.965755638753201],[94.6125519832934,23.961711102433998],[94.618737823096097,23.959569900019002],[94.629682018494904,23.955049541988402],[94.633250799107401,23.952670362824399],[94.634440485528799,23.947911886788098],[94.634202687532607,23.942915457499002],[94.633251150081804,23.937681089083199],[94.631110037600806,23.932446697124],[94.622307416391394,23.922453673836301],[94.617073397648596,23.9176950707635],[94.610411916645802,23.911746814620201],[94.605415790568102,23.907939916260499],[94.599468004468704,23.9041329991664],[94.591854818911202,23.900088124306599],[94.585669095574104,23.8972329025761],[94.571156408382905,23.8917603420958],[94.562115666351204,23.890570539241899],[94.542844574308305,23.889618460286499],[94.534993379735695,23.889618305961701],[94.530235074492794,23.889856137435501],[94.523335539947198,23.889856001886699],[94.517863500865204,23.8896179694352],[94.5135811085391,23.886286935680499],[94.509774617938007,23.879862886583901],[94.506443957216007,23.873438846817098],[94.504540775284298,23.867490684991601],[94.504540896631596,23.8622563354009],[94.506444321302197,23.8577357980366],[94.509299400410598,23.853453204276299],[94.514533690082004,23.846553482245199],[94.519530042748201,23.840605455423301],[94.525002170327298,23.837036687799401],[94.529046802454005,23.8337058171637],[94.533567286657004,23.829423255845001],[94.540229072058693,23.822285636462802],[94.543084123754198,23.81919266741],[94.545939203016204,23.814910073316],[94.545939296684594,23.810865348227601],[94.543798144243993,23.807296431168499],[94.5271443029186,23.798254954734301],[94.508111305904194,23.7894513571452],[94.502163463768795,23.788023690834599],[94.495977695663697,23.787071869923899],[94.481465072624303,23.778744211328299],[94.474565630813302,23.774699351598901],[94.463621705182206,23.767561388004399],[94.425556125228596,23.731871895969601],[94.421987520251193,23.726637476416499],[94.419370613380806,23.719737600277799],[94.417467429630904,23.713789438019599],[94.415564256711406,23.707365425707401],[94.4150885791924,23.700703516047799],[94.415088682634405,23.696182940727599],[94.417707583786793,23.615764331180799],[94.417945661386597,23.608626584456101],[94.424131890863094,23.589354775082398],[94.427938688396395,23.582455022089398],[94.429604326339899,23.5722242768157],[94.427463907007905,23.5362975507886],[94.427226072932996,23.532728670148099],[94.424609126132495,23.5274942681149],[94.421754215687102,23.524401187140398],[94.387733010143293,23.495849523379398],[94.354425429903102,23.472532226393898],[94.348953512520893,23.4668219196341],[94.343957473363105,23.458970296320299],[94.336582417384193,23.445170500440199],[94.332300192520094,23.434225864685899],[94.327780116475907,23.420426123270701],[94.322784428684599,23.396871443848099],[94.322308801161597,23.387830281149501],[94.322784801804801,23.3802166871038],[94.324926202492904,23.372841049850301],[94.3422952953416,23.315025578675201],[94.345388170124593,23.315977338085698],[94.352049749858097,23.3178808660094],[94.358949260639605,23.3190706231474],[94.367276309829293,23.318119081427302],[94.371082988427304,23.316453678139698],[94.372272638334906,23.313122749032999],[94.3722727393925,23.308602171572002],[94.370131620577894,23.3033677778702],[94.367990480454694,23.299085084683899],[94.344913713930296,23.254354719703901],[94.338966064186906,23.244123825557001],[94.334683735296096,23.237699765338999],[94.330163411929405,23.2348445778001],[94.3237397730705,23.231751429036802],[94.316840272318601,23.230085822171802],[94.311844108168202,23.227706476006102],[94.307799657164793,23.222947896459601],[94.304706892864203,23.216999709222701],[94.303755380168994,23.2103377870766],[94.304469251999507,23.204627597011001],[94.306610588035497,23.200107059678],[94.309941515380601,23.194872769362799],[94.314224050588606,23.1920177485629],[94.325405786005504,23.204390068407001],[94.328498666497197,23.205103902481799],[94.330877843909406,23.203914321799399],[94.334684564731702,23.200345516607602],[94.336587996390904,23.195349124364402],[94.335636552236096,23.1855941747617],[94.334685055239703,23.178218476691899],[94.335398937595997,23.1720324359204],[94.342299639016204,23.119451102827],[94.343727245377195,23.114216775744701],[94.347771907620995,23.109458348436501],[94.351578644252001,23.1051757669666],[94.359192080809194,23.098276080269301],[94.367043406332499,23.092566023955001],[94.425095595412103,23.052119836105501],[94.442701543308502,23.041889384578599],[94.442701632645793,23.0378446557269],[94.442463827809306,23.032848221439799],[94.440085038404007,23.016431335518998],[94.4374680554875,23.012624482327499],[94.431044524195102,23.004534903017898],[94.412963379760399,22.9859763934125],[94.404398459808306,22.984786605787399],[94.3951197630319,22.985024356202199],[94.388458080882799,22.987641408297598],[94.376800091547594,22.9943030952189],[94.369900473521596,22.9978718437245],[94.365142133785,22.999537230726499],[94.360859660966298,22.999537150120702],[94.359432237940695,22.996444095340301],[94.358956491191606,22.9926372827832],[94.358956574737604,22.988830479160701],[94.359908355442002,22.9833582168182],[94.366094410577205,22.971462071579399],[94.388934882333004,22.943387322670802],[94.393931226176704,22.9376772106495],[94.399403389989502,22.932442958011499],[94.405589247256898,22.9295879712801],[94.410823402128699,22.9286363686893],[94.415819610551296,22.9291123131738],[94.427953238027399,22.931253868802902],[94.493142294008507,22.917931282361099],[94.500042091228707,22.906273073984099],[94.502897146929499,22.902942173924501],[94.521216921546298,22.8891428530365],[94.525737378639306,22.886049909569302],[94.538347063082995,22.877960687577101],[94.540726236226405,22.8770090312976],[94.553573705429599,22.874867946150399],[94.558332020429901,22.8743921854056],[94.565231572513696,22.873916465122299],[94.568086555264898,22.8739165190572],[94.571417363248699,22.8741545072915],[94.631609566306594,22.890096641940701],[94.638746970964306,22.8924760303562],[94.642791477490107,22.894855360156399],[94.645408508334796,22.896520886966499],[94.649453009582302,22.899138142109798],[94.652545839324404,22.902231229824501],[94.654924933847994,22.904848453381302],[94.657304007296204,22.908417378172398],[94.658493520312803,22.911272504447901],[94.660634494056097,22.923168810371401],[94.661110176934898,22.929830727875899],[94.661109976534206,22.938871889265499],[94.662537304376301,22.946247600636902],[94.665629885599103,22.960523177166699],[94.670863756428801,22.972419541414101],[94.6739565433584,22.977416031428799],[94.677763149999905,22.979081581013599],[94.699413393752195,22.980985396296301],[94.707502511739193,22.980985550692601],[94.717494962289294,22.980509890899601],[94.721777473689698,22.978844495615299],[94.726059990418307,22.976941175032401],[94.727963349454896,22.975275734297099],[94.730818401272998,22.9721827599313],[94.735576870463504,22.964807166442402],[94.736528589740303,22.962190006267999],[94.739383758147298,22.9538626750556],[94.743904455066399,22.940063093328799],[94.744618301404998,22.9355425259829],[94.751519845362097,22.845368957534198],[94.751519919104496,22.8420380027083],[94.751044172809301,22.838231188127899],[94.749616749586906,22.835138131481902],[94.746761834676803,22.8320450477012],[94.742479443860006,22.828238160762901],[94.738910762032006,22.826096764838699],[94.729156304025906,22.823003550092398],[94.722494697329097,22.8220517222626],[94.712264340551499,22.8220515281551],[94.708695595711603,22.822765236493101],[94.704413084071703,22.824430632669099],[94.700130603960602,22.824668476800401],[94.695372298580494,22.824668386583902],[94.691089849995706,22.823478678707399],[94.687996998738797,22.821337292035199],[94.685617893275094,22.8191959188974],[94.683952544092605,22.816578708605299],[94.682287205381598,22.8134856476312],[94.682049353021398,22.810630539026899],[94.683001438478598,22.791358604090199],[94.683715262839797,22.787789737363099],[94.6849049282105,22.783745028915899],[94.686570429358198,22.779462404088999],[94.721545252461695,22.7214092763219],[94.723924462909395,22.7187921421291],[94.7279690752395,22.7164129647756],[94.733916999557906,22.7145096741515],[94.740340733627505,22.713558094062201],[94.753902021029006,22.708323992040398],[94.765084139899599,22.7038036211788],[94.768415006551393,22.701424430284501],[94.770556317569799,22.698093515298599],[94.772697670414402,22.6928591971297],[94.773887330625698,22.689052413293499],[94.774601154968707,22.6854835458313],[94.775552957313295,22.679059578050499],[94.775553077448805,22.673587293825399],[94.774125825675398,22.662642698285801],[94.772698422450404,22.658597939422801],[94.766274901702005,22.649794578065599],[94.772224262959497,22.5822238713241],[94.775555192004404,22.576989574562901],[94.779124072753007,22.570089804185798],[94.809578633337694,22.5060884317258],[94.814813102872606,22.490861300469302],[94.814575404893901,22.480868426367898],[94.814337598170695,22.475871987035902],[94.813386029780403,22.471589310688],[94.811720730749201,22.466592844507598],[94.8117208237922,22.462310185984801],[94.812910488523997,22.4582654752347],[94.814813873542604,22.4554104052337],[94.818858507302494,22.452079524436801],[94.825520194770704,22.449462469171301],[94.832181877135397,22.4470833393875],[94.893802346250297,22.429478010790199],[94.964939608383403,22.404021320289399],[94.968270476139907,22.401642127834801],[94.9718393060013,22.3971216101348],[95.017758621847307,22.321938004015699],[95.032510207108004,22.283870191273198],[95.033937859956893,22.2764945253649],[95.036317267510697,22.264836216867401],[95.037982778970601,22.2600777365843],[95.045358529885206,22.242947233146701],[95.1048397391923,22.134930122608701],[95.131011226472793,22.098765915779399],[95.138386889961396,22.0856801431664],[95.143383326358105,22.075925284879101],[95.144097365108195,22.062363535694299],[95.146002463194307,21.979803362451602],[95.145051702509306,21.9376904970437],[95.142196832742599,21.9322181528144],[95.141245292508202,21.9265079182763],[95.141007498918796,21.920797696977399],[95.141007778292007,21.907711783149001],[95.141721631612299,21.902715356527001],[95.143149231618906,21.897718943127401],[95.153380291055996,21.865361235523501],[95.178363052086794,21.788987536882999],[95.204058891714297,21.744020043631501],[95.207865622276202,21.740213301716501],[95.211196506492698,21.7371203282895],[95.215716933528697,21.7356928572814],[95.219999419751005,21.735455010755299],[95.223568199481093,21.733313744811699],[95.245218995655094,21.7109491218886],[95.264729995329901,21.620299750845099],[95.271154350193498,21.590321215263899],[95.270916484652602,21.587941952567601],[95.263303579036204,21.5691456714958],[95.2561664491475,21.552966583229701],[95.251884366736107,21.533932437168101],[95.251646560877106,21.528698064202398],[95.251646640719301,21.524891250656101],[95.253312115292701,21.5217982452115],[95.275916229651997,21.487057504692601],[95.279024164285303,21.482913587333599],[95.283168055450901,21.478424357742799],[95.289387621609904,21.475663846508201]]},"properties":{"FID":5,"FID_1":28,"Id":0,"Name":"Chindwin River","InLine_FID":27,"SimLnFLag":1,"MYA":"csif;wGif;jrpf","Class":"Major","Shape__Len":968512.68879000004}},{"type":"Feature","id":6,"geometry":{"type":"LineString","coordinates":[[97.198238289898498,24.239089707772099],[97.204512353234307,24.2412898653774],[97.209865381785093,24.24396664484],[97.214028824854395,24.2469408046491],[97.218192024154902,24.2591345731507],[97.218191709459106,24.271030842232999],[97.217299376721201,24.276681550136399],[97.216407036073804,24.282629664708899],[97.216406886437397,24.288280392361099],[97.219380712176601,24.2927415592995],[97.222651963789104,24.296013106000299],[97.227112777170902,24.299879492637],[97.261312753649193,24.3141557774285],[97.294025845121297,24.325160556597801],[97.298189366789202,24.325160649655999],[97.3035424106683,24.327242616396401],[97.312166658324401,24.3343805706618],[97.320196109113596,24.341815918436399],[97.331793975056598,24.361147615051301],[97.333578262048704,24.364121722223],[97.333578206433302,24.366203569241399],[97.331793593654695,24.375423137381599],[97.328521937230207,24.387319332396199],[97.327629722229702,24.388508939208702],[97.325845316092398,24.389995932710001],[97.324060854282493,24.3935647731318],[97.324655563515506,24.3965388535029],[97.328521212963807,24.414383342229701],[97.329710726791006,24.4167626225099],[97.333576821967796,24.417952336127001],[97.340119450715306,24.419736923293399],[97.346067330560501,24.420034463653099],[97.351420429626202,24.420034583975202],[97.356178763857997,24.419142470845301],[97.390081901143503,24.4126002859133],[97.3945428492015,24.411410759462299],[97.3984090404022,24.4090315927643],[97.401680466752694,24.405760192512101],[97.405249311483303,24.401596578768601],[97.407033757800704,24.398622551715601],[97.408818228061506,24.394756304471699],[97.409710523035798,24.390592630394401],[97.409710834116794,24.3789937679772],[97.410305694726006,24.376317120771599],[97.412387639058807,24.369476812712399],[97.412982475736101,24.367692385672399],[97.414766866217306,24.366800205587101],[97.433205392762503,24.364123959678999],[97.435881934709599,24.364421426649301],[97.460565537499605,24.3694778970955],[97.463242055539297,24.370667584389601],[97.526526339808797,24.417242909852899],[97.552696472869599,24.4386567881498],[97.555789375154902,24.438656858258501],[97.564116419818902,24.438657047053201],[97.620026520667494,24.440799644877899],[97.647624547058001,24.447462183946499],[97.666657657990399,24.4524590509122],[97.701393074979805,24.4619768593342],[97.7258979141358,24.479108048933799],[97.733748628609902,24.497428485456499]]},"properties":{"FID":6,"FID_1":44,"Id":0,"Name":"Ta Ping River","InLine_FID":43,"SimLnFLag":1,"MYA":"wmydkifjrpf","Class":"Major","Shape__Len":85487.965646700002}},{"type":"Feature","id":7,"geometry":{"type":"LineString","coordinates":[[96.266807918121003,23.904665460246601],[96.276038464849506,23.934265636469501],[96.285638323996807,23.945402464567799],[96.289522528723595,23.9490518650179],[96.295172959117295,23.951431237687],[96.345729475729001,23.9713585541474],[96.351082571773304,23.971358667910401],[96.355840886879506,23.971061362427001],[96.378145559052697,23.966898143924102],[96.404613781279593,23.961545387735899],[96.408182534712694,23.960653243792901],[96.411156462173295,23.9612481204095],[96.415319959125995,23.962140429018302],[96.418888660088498,23.9633301316203],[96.420970367298906,23.965412022489101],[96.422754665239594,23.968088720313698],[96.430189213522098,23.9802825511739],[96.435244690226398,23.9892048582341],[96.437326307062193,23.994855628788901],[96.440894917624107,23.9996142111683],[96.443571383037593,24.002885741323102],[96.455764306071302,24.012403014186301],[96.464091224347698,24.017161698393899],[96.473310445996304,24.017161895604399],[96.501265701952306,24.009429921242202],[96.503942310656598,24.007050725367701],[96.508998254551599,23.997533820765401],[96.5167309202984,23.981176620075399],[96.517623201115796,23.977310352546201],[96.517325995247603,23.9698751795448],[96.514946976640104,23.9645218086374],[96.512567912798005,23.960952877735799],[96.510783682643904,23.955599519527201],[96.510189037073303,23.949948780047201],[96.510486589337802,23.943703246241402],[96.5280338370506,23.904743345169202],[96.544986033123095,23.876192663461701],[96.557476969504606,23.861322594202601],[96.560153608401706,23.857753770657499],[96.561045903870607,23.853292688848899],[96.5622358110341,23.840206818253101],[96.562236043301795,23.830987209591399],[96.561046563347603,23.827120896704798],[96.559857053417204,23.824444210747401],[96.522981396488007,23.775073907540001],[96.488484925801501,23.724216621864802],[96.487592846722606,23.7200529083856],[96.487890352398395,23.715591813295902],[96.491161868260207,23.708454120219798],[96.511088209327596,23.6715761016778],[96.5265541597782,23.613582103040201],[96.5262573562851,23.589789551642198],[96.526852196730601,23.587707716446499],[96.564622215329706,23.550235251816101],[96.570570192113294,23.546666495058599],[96.576220730276404,23.544882173102899],[96.581573851932305,23.543990065433199],[96.585737388563601,23.5433953395396],[96.589306224928706,23.539231718865299],[96.591090680009003,23.5356628742346],[96.594659988293401,23.512465214293901],[96.594957625855301,23.502650793910099],[96.594958104361496,23.483319347104398],[96.594958332391798,23.474099733838699],[96.593471521926105,23.467556751142901],[96.566707093100405,23.424134783189398],[96.535481874740796,23.3753593977181],[96.531318505578994,23.369113765658],[96.527750639032703,23.333722268467799],[96.529237778714901,23.326881940307],[96.541431730027,23.295059653029501],[96.544405812862394,23.2894089831664],[96.553922763198003,23.276025868985599],[96.558086358655203,23.2730518862564],[96.563439488533405,23.271862370021701],[96.596747577578498,23.275729355247901],[96.637490515642696,23.280191310965101],[96.641654111685099,23.277217328341301],[96.652955314622304,23.2685927624557],[96.653252818434098,23.2641316640124],[96.655037236555103,23.2620498524719],[96.658903365341303,23.262049933322],[96.685073864813006,23.270972690500901],[96.790350300573607,23.320939275930201],[96.807004108409103,23.3325384996797],[96.814736219447596,23.338486802637401],[96.826036932362399,23.349788506853798],[96.827226377878503,23.355141857762099],[96.837932330784994,23.365253921605799],[96.924473087645893,23.407784955693501],[96.965810924986002,23.4080832420299],[97.005067068935602,23.4057048222958],[97.009230555914797,23.407191946129299],[97.045214607603697,23.434851566491901],[97.082982725513602,23.4744075071346],[97.126995923034997,23.5219935727436],[97.1412703962649,23.540433113840098],[97.143054635614504,23.545489071171001],[97.142757150527103,23.5490579486573],[97.140675313002802,23.552031973681199],[97.140675260198194,23.554113822600701],[97.142162172759598,23.5564931105616],[97.149299401211493,23.566010288073901],[97.176361408219904,23.6014023035444],[97.183796106070403,23.6079454179104],[97.191528259071504,23.612109282965701],[97.313755852912294,23.673972590804599],[97.318514005972702,23.680218241253101],[97.325056641329596,23.6820028258993],[97.354498523631406,23.689141236473802],[97.369963097146993,23.6870597255229],[97.380074629145398,23.6825988416462],[97.424089471427095,23.665647605090101],[97.473754692353793,23.6534550048321],[97.481189543441502,23.654049981884501],[97.485055635591195,23.655537101839101],[97.498438087692193,23.667433676897701],[97.501709328909797,23.6713000401719],[97.501709113334101,23.679627437100599],[97.507061723980001,23.698661604552299],[97.553156628078398,23.747437371383999],[97.554643570370104,23.748627032268299],[97.581111206277299,23.767364258977],[97.635532817515397,23.828928716286399],[97.639398815357893,23.833984721261402],[97.648915217866005,23.842609735887599],[97.687575921113194,23.865510935690899],[97.692928993694593,23.866700682998498],[97.703337791278301,23.867295729025901],[97.716720519971105,23.868485655512401],[97.720883990438693,23.870567597487099],[97.724452671558694,23.872649526211799],[97.727129176506594,23.874434028026698],[97.782740831889996,23.917856695379101],[97.851437920381997,23.958602998272699],[97.863630571239597,23.9785295424178],[97.894856051385005,24.014516494238801],[97.897235153126402,24.0165983969808],[97.900209068112204,24.017788092163102],[97.909130821037394,24.021059770777899],[97.919836958040406,24.023736675835298],[97.929650998741707,24.023142083774299],[97.935896335127595,24.021357783001001],[97.9391676767642,24.0213578570133],[97.976044316059102,24.0326601586249],[97.978126031029205,24.0344446479072],[97.978720732507199,24.037716138554799],[97.978720620575302,24.0418798367423],[97.976638625747299,24.0505045928352],[97.974259356174699,24.0546682369717],[97.973664446765895,24.059129328558502],[97.973961721412806,24.063590440359601],[97.974259004034096,24.0677541451354],[97.974556302643094,24.071323035891101],[97.9757457933121,24.074594539888299],[97.986451569361805,24.090654760917399],[97.9926966251778,24.099279705726602],[97.996265257095004,24.103146077799401],[98.042955532291202,24.128724142731901],[98.047119066096499,24.128426830701699]]},"properties":{"FID":7,"FID_1":45,"Id":0,"Name":"Shwe Li River","InLine_FID":44,"SimLnFLag":1,"MYA":"a&GvDjrpf","Class":"Major","Shape__Len":351362.94084900001}},{"type":"Feature","id":8,"geometry":{"type":"LineString","coordinates":[[94.314224050588706,23.192017748563],[94.303048479845003,23.194451217740799],[94.287583955865301,23.196354326146999],[94.282349818917098,23.196592152756701],[94.242380068259706,23.197305173033399],[94.185518296168198,23.200397127605601],[94.183614938649598,23.2020625676824],[94.1819494338216,23.206583114184198],[94.182901010058004,23.210389933542199],[94.183852580898602,23.214434679335099],[94.183138678387493,23.221572419316601],[94.182662790444397,23.2241895867162],[94.179569616391504,23.236799560052301],[94.1788558137048,23.239416722955198],[94.177428264989103,23.242033871468902],[94.175049083379605,23.2434613779165],[94.165294550116599,23.244174969262399],[94.162677500528204,23.243461144092802],[94.1134295344268,23.222998658619598],[94.111050451742699,23.219905587089301],[94.099631203256394,23.189213032944199],[94.095111417581194,23.161851559501599],[94.107483125438307,23.156141588569799],[94.112003944434406,23.136393886943399],[94.113669802696094,23.115694431014699],[94.113907806472596,23.1116497077048],[94.113907883814207,23.108080830969101],[94.111053630846101,23.0747712560139],[94.110102042918498,23.071440285928102],[94.108912514166903,23.069298938123001],[94.107247139740494,23.067871356132301],[94.084645377600694,23.060019404272701],[94.073463533942501,23.052405591088],[94.080601374647998,23.034561336912301],[94.087739432090103,23.006724224639001],[94.087501589292202,23.003393268042799],[94.085598330699398,23.0005381310411],[94.0822675449743,22.999348443109501],[94.079888393941602,22.999348399042699],[94.055383247303993,22.994351514937101],[94.033495908383102,22.955093455358298],[94.032782224407001,22.952238339940202],[94.033496046878696,22.948669475795],[94.054433273659299,22.916312037354],[94.057764172698896,22.912267370701599],[94.0615708454675,22.910839890334199],[94.066567067672196,22.910602057428999],[94.071087413624994,22.9125055426511],[94.072039017740593,22.915122737030298],[94.072514755496798,22.919405399365399],[94.073466374900605,22.921308818937],[94.075607575216907,22.922974335456399],[94.079176301765699,22.922974401106799],[94.082745069683497,22.921071066071399],[94.085838048583497,22.917264319558399],[94.088455216882295,22.912505864608502],[94.089882789879695,22.908699087518499],[94.0891691166957,22.905368121928898],[94.083816260186694,22.894542425769501],[94.101065340405299,22.883717148219802],[94.102730786777599,22.881813777211399],[94.117006674133407,22.8363703237072],[94.119387277570993,22.768799599359099],[94.138184938103606,22.658402620382599],[94.138184998358199,22.655547516656],[94.128669004867604,22.626758381183102],[94.118201064619797,22.6112930451153],[94.116060141294795,22.596541637639401],[94.122008894815806,22.555380667504998],[94.131287976307107,22.537060587439399],[94.144611656102299,22.516837177734299],[94.145801308060896,22.5132683198843],[94.146039313635995,22.508985667441902],[94.144611913308395,22.5047029853217],[94.119631764559799,22.4597346400483],[94.109401645526106,22.448551962718302],[94.1148747161497,22.400015289295698],[94.121298427714706,22.400015406207299],[94.132004628045806,22.3993018247542],[94.133670075317198,22.3973984519473],[94.141997368332099,22.385026484186302],[94.142473229295305,22.383598939967101],[94.151990997148204,22.328400424398399],[94.151991226475403,22.3174558560656],[94.144380380154004,22.2003964144109],[94.132722881477093,22.183503499050499],[94.124871884697498,22.173510488967601],[94.122017044472102,22.166610599877899],[94.119162411090798,22.149717842798101],[94.127014850382906,22.089998695292199],[94.127967027366395,22.0650165383576],[94.111075500559295,22.042651241254401],[94.097515201943494,22.000062338393899],[94.097991081792699,21.997683092033199],[94.099656596513299,21.992448761730699],[94.101797956009406,21.986500662016802],[94.102749768767595,21.979124989305301],[94.103701747001097,21.9636598492899],[94.103701780275998,21.961994370542101],[94.095851182795499,21.932253542820298],[94.066589417623305,21.8427930297979],[94.064448246984796,21.8394620345309],[94.061831217181606,21.8375585843823],[94.060165829265301,21.836606852563101],[94.053742123995406,21.836130888177902],[94.052076716293996,21.836130858500301],[94.051125069910498,21.835417064807],[94.048746065467398,21.8280413318409],[94.041134203811495,21.757377312930601],[94.041134232589897,21.7559497588189],[94.045654873520206,21.743577710118899],[94.048509906200493,21.741198505126899],[94.072063796760503,21.727875087933601],[94.074680918294504,21.725257952909899],[94.077773899892506,21.7212132727674],[94.085625495620505,21.701941440198102],[94.104129898120107,21.637470642451401]]},"properties":{"FID":8,"FID_1":46,"Id":0,"Name":"Myit Tha River","InLine_FID":45,"SimLnFLag":1,"MYA":"jrpfomjrpf","Class":" ","Shape__Len":243761.389605}},{"type":"Feature","id":9,"geometry":{"type":"LineString","coordinates":[[95.987423971120606,21.866470208267],[95.984800706751003,21.848416029959399],[95.9852767477947,21.838899003401199],[95.985514742101998,21.835330119550399],[95.985990625997204,21.832950869723899],[96.010020496499706,21.815820665788699],[96.014540964440002,21.812727715720602],[96.018823469513904,21.81177609425],[96.024533432681594,21.812489981548801],[96.033574175002201,21.815107340112501],[96.039284096295304,21.817724634788199],[96.044756080821898,21.821293628578299],[96.045945607332101,21.8236729105449],[96.046183481164306,21.825576322399002],[96.045469702326699,21.827003864138799],[96.039045860666604,21.832238110649499],[96.037618323986706,21.834141490461501],[96.036904529417399,21.836282809889401],[96.037856124347499,21.839375864940301],[96.041900587711993,21.8441344607836],[96.047372545736096,21.848893084106201],[96.049989587851996,21.8503206898807],[96.052844572021002,21.8505586707264],[96.056889150892204,21.850082896763901],[96.127788878890897,21.81296781919],[96.141826269416896,21.796789126179799],[96.141588416670103,21.7939340103358],[96.138971531806405,21.785368626092801],[96.138733768272402,21.778468769196301],[96.139447578732501,21.7756136716146],[96.140637205083806,21.773472361013098],[96.143968042345506,21.772758647294399],[96.149202190462006,21.7727587480659],[96.167283709170903,21.776565911545099],[96.191312992278299,21.786321338913499],[96.192502555641894,21.787035139724601],[96.193692097946197,21.788700644341201],[96.201780909570502,21.803452209411802],[96.202494609617005,21.805593556730901],[96.203921819797102,21.818441585377499],[96.203683840653596,21.821296692094599],[96.203207940397505,21.824389720140498],[96.201780376832701,21.827482729764998],[96.201780308208797,21.8305757669836],[96.203207745075204,21.833192979929699],[96.205586861067701,21.835096433474099],[96.237467380978998,21.844138236636098],[96.255787518999099,21.816301255658299],[96.263163174351703,21.8044051006671],[96.264590764524101,21.8001224610233],[96.266018381095606,21.794650191530799],[96.266970113141994,21.7915571724252],[96.2698252300532,21.785847004519901],[96.2741078790187,21.778471382393501],[96.277200869554605,21.7746646267221],[96.347863454468893,21.703764049152099],[96.351432271814701,21.7001952280695],[96.353573546418701,21.698767713438698],[96.375937824632302,21.6904407357803],[96.394257491070505,21.684017087954501],[96.463967174505498,21.669504951506099],[96.467535886863004,21.670694650988999],[96.470152930257598,21.672122258052099],[96.474435353358899,21.6749774537222],[96.486330821228506,21.689729099451998],[96.499653561372398,21.7144736666414],[96.502746240046307,21.724704546356101],[96.502746192253696,21.726845880648298],[96.502745963829696,21.7370766999619],[96.502507973516998,21.740407659721001],[96.501556246085997,21.7432627534922],[96.499177012551698,21.746593671461198],[96.496559762088097,21.754445179204101],[96.495370076180293,21.7592036764276],[96.494894132652604,21.764200113558999],[96.494894079444506,21.7665793737449],[96.4994139597447,21.789896211489602],[96.5006034806255,21.792513420861699],[96.5032205022341,21.7948927321209],[96.5058375558271,21.795844487321698],[96.537004293812998,21.8067896936934],[96.554609974852994,21.811072706871499],[96.571026146045895,21.812262658811299],[96.594817646656395,21.816307868042301],[96.598386369368399,21.817021716187401],[96.604334197689496,21.820114871318602],[96.615040102985404,21.833914791065599],[96.615753807804793,21.835818213273701],[96.615039904353097,21.842718053817499],[96.614326070675801,21.8465248560681],[96.614326022335405,21.848666190223799],[96.615277589299396,21.8529488772467],[96.6162291938533,21.855566082148702],[96.619797728297499,21.8646073409531],[96.621700991073794,21.867462490596601],[96.623366354059399,21.8696038575175],[96.624793828024494,21.870555589692],[96.633834514380794,21.8757901401524],[96.637165315662401,21.8767419098759],[96.688554890337898,21.888401299270999],[96.735423874137894,21.9083880128258],[96.737802995551903,21.910053542148599],[96.7587391802181,21.928374261256401],[96.761118290711806,21.930515642695699],[96.7630215584703,21.933132866732599],[96.764210953502598,21.941222375042098],[96.763972966951499,21.944315408550999],[96.762307403296504,21.950977303911301],[96.7813399756904,21.9816701382627],[96.8227377134356,21.965729920158601],[96.911005099984706,21.9409873743224],[96.917904706769903,21.9390841038201],[96.937175944208605,21.937181080717501],[96.942410101125205,21.936943259361499],[96.949785452637599,21.938846815390999],[96.952640400597005,21.940750280992098],[96.953829942181002,21.942415787206201],[96.960015374285106,21.9590707349669],[96.960253273823795,21.959784517894001],[96.962394287402105,21.9697774549889],[96.978807925098494,22.080651317268899],[96.966671975963095,22.176773177477401],[96.964292644627804,22.184148834887299],[96.942403240954306,22.232923216396799]]},"properties":{"FID":9,"FID_1":57,"Id":0,"Name":"Myit Nge River","InLine_FID":56,"SimLnFLag":1,"MYA":"jrpfi,fjrpf","Class":" ","Shape__Len":197580.30780499999}},{"type":"Feature","id":10,"geometry":{"type":"LineString","coordinates":[[93.740393418293294,24.007241073345899],[93.740158178337694,23.993765560271601],[93.740613961523593,23.991183019190402],[93.7482102604272,23.951989172088702],[93.748666036679396,23.949710460243001],[93.749729422199493,23.9484951628632],[93.750792821408993,23.946672206672101],[93.751096689348401,23.9443934919152],[93.751248648975306,23.942114774260599],[93.739552887321693,23.889703977849798],[93.733021402061894,23.864182181956998],[93.727704855912506,23.853244221582901],[93.724818665876498,23.850205872564199],[93.718894360432301,23.8448887452709],[93.692767678093801,23.775463222808401],[93.689881649731305,23.765132966742598],[93.689577870241393,23.7634618989721],[93.690033716823393,23.757992977196501],[93.690185642037406,23.757233406393201],[93.692312500457405,23.750853027629201],[93.693072069112802,23.749637724055301],[93.694287356004907,23.748726258530802],[93.702794350813406,23.742953658765799],[93.712516636050196,23.736117678661898],[93.716010622284998,23.731864131749902],[93.716618275883704,23.7309526547497],[93.721631440029697,23.722445523607099],[93.721783385496195,23.720774464288802],[93.721479653192503,23.716976589963998],[93.719808887486494,23.706798270563699],[93.719505104529702,23.705279117381099],[93.704315021427604,23.6714018427285],[93.694289490879001,23.6524123104208],[93.6888208777914,23.648462424239],[93.679554532595105,23.645575870191902],[93.678339272559796,23.645272017908201],[93.670440011921002,23.646487187918002],[93.664363648089605,23.647854306859202],[93.647349907350701,23.6481578177969],[93.644007923909996,23.648157755250299],[93.6286655767029,23.6302315277978],[93.625475765671894,23.618230202779401],[93.625323937522396,23.614584245857799],[93.626235427657207,23.612761285828],[93.630033276497898,23.6063809370199],[93.634742518635704,23.6025831560308],[93.641274640907696,23.599696897608698],[93.645831941381999,23.597418261336301],[93.661174911695198,23.5870883441643],[93.662845940296606,23.585417312983701],[93.672264936015793,23.554578791078399],[93.675760114387202,23.495939752283],[93.675608731282594,23.471937213355801],[93.670747799648893,23.465708616601301],[93.668621122321795,23.463885599583701],[93.654645714980902,23.456441515153902],[93.635353551117703,23.447326269619801],[93.633986379125901,23.4471743294616],[93.632315380468199,23.447478128031399],[93.624416347289795,23.438211179435001],[93.617429058211002,23.4154238313712],[93.608467176983496,23.3826100697916],[93.609379710075999,23.332630116483099],[93.610443183767899,23.327313117805399],[93.618495142391097,23.289638392565699],[93.634904084171396,23.157928535417199],[93.646755043974906,23.0596398407755],[93.647059350157903,23.0367007012164],[93.647970982057103,23.0281934850568],[93.651465461533306,23.000696956387699],[93.654200246355401,22.980340412274799],[93.654807912403697,22.978821274521799],[93.657390475345196,22.9732004708898],[93.730459769653507,22.910612866240498],[93.789400938826802,22.878407980508602],[93.790616196908701,22.878863747453501],[93.8004902508508,22.8787120128802],[93.802313162227506,22.878256301424901],[93.803984174832394,22.8773448424359],[93.826315173438601,22.856077161193902],[93.8528996977183,22.8307078535694],[93.874015420454896,22.8098958929749],[93.892700443194599,22.796831549375799],[93.913056136758001,22.798958730965602],[94.007542938486907,22.8124808949769],[94.044304202461703,22.8402820087409],[94.079090621397299,22.869602237181201],[94.081521082346697,22.873096326043701],[94.0833439255874,22.875830828905901],[94.083816260186694,22.894542425769501]]},"properties":{"FID":10,"FID_1":58,"Id":0,"Name":"Ma Ni Pur River","InLine_FID":57,"SimLnFLag":1,"MYA":"rPdyljrpf","Class":" ","Shape__Len":201844.731489}}]}