{"type":"FeatureCollection","features":[{"type":"Feature","id":0,"geometry":{"type":"MultiPolygon","coordinates":[[[[101.11990413657361,17.180178824333669],[101.05078619852512,17.013102469473328],[101.07693430463658,16.922825481413405],[101.14077672775963,17.016655389524466],[101.11990413657361,17.180178824333669]]],[[[101.11990413657361,17.180178824333669],[101.2639048366735,17.247059214138723],[101.41971011514158,17.231815486798414],[101.47436549600664,17.098981546630132],[101.54123502015044,16.935597236708048],[101.54149334175223,16.77169688433279],[101.45880397821003,16.647185686135142],[101.40966329350914,16.549233016917601],[101.41204423394295,16.408218431040225],[101.36910313638246,16.285354514530514],[101.34489791243644,16.171199686095147],[101.39058080692803,16.01676131173484],[101.34545911186466,15.88015087628634],[101.35440740276192,15.760090528736576],[101.39142318433711,15.650199804033532],[101.40589489756221,15.472681361018894],[101.52453600650648,15.328050746662198],[101.45314051907823,15.157857770036992],[101.47561938626792,15.006378492336982],[101.47910220652798,14.849797858756176],[101.37361374636697,14.748315006256249],[101.33648176643106,14.617869430460955],[101.30052223646068,14.494239904837993],[101.44057971606753,14.419078630408631],[101.71044305545537,14.358018514371953],[101.91774625371437,14.352660135516787],[101.9713565220309,14.229737123373054],[102.07440580588042,14.17126696110671],[102.23493419345837,14.174614806870901],[102.45111243068489,14.126652587729195],[102.51184936210616,14.015611430368995],[102.4485792621787,13.927256337794862],[102.33758070770628,13.84059627933958],[102.26393311014272,13.75119665787998],[102.24615110612265,13.644232585740053],[102.31356165960385,13.522549818379083],[102.3296723024728,13.420244589488211],[102.30977991945252,13.234212483813922],[102.23851471473463,13.107428729296261],[102.18890411672702,13.012818792273409],[102.22768774188238,12.913098552871245],[102.31729259231288,12.827576878798075],[102.48371661990539,12.738923783645978],[102.61676121647969,12.616919625825709],[102.72318177174583,12.470569739605978],[102.8411944485233,12.315103597105194],[102.91007395447109,12.193712929144429],[103.06953737867032,12.138809716420502],[103.1951317704912,12.209874080879311],[103.34021935055365,12.221841734094417],[103.41322531293997,12.122342550908023],[103.5774856800428,12.05305118047092],[103.70258509702965,11.95500796707644],[103.85980905562157,11.868204019102892],[103.78624073997112,11.730004687132677],[103.8201086302047,11.612594900754633],[103.92321719494939,11.559083370377557],[103.94780965083501,11.384756175228381],[104.04161578165677,11.336128584090062],[104.13732778646522,11.180011626987929],[104.28443579940297,11.149929585028838],[104.34833844051924,10.959398557015415],[104.31327797609532,10.809098987743388],[104.45589932091457,10.632384379708665],[104.5392988581943,10.502441412229745],[104.49013534139625,10.396899368405721],[104.55057426304461,10.290331166235594],[104.65166810203867,10.175831640399075],[104.79587333053483,10.201385024692446],[104.87939703060961,10.112018439087217],[105.01945583942083,10.067786980883401],[105.08893854063984,9.9676683902700294],[104.99760707624563,9.8851254370578392],[104.88903899350518,9.7863417615135848],[104.85468675757559,9.669596138437516],[104.83987122649066,9.5660576147578151],[104.83274462903648,9.3706681991659231],[104.82433405076051,9.2750903234866566],[104.81455172640396,9.1766156294969399],[104.81614952355881,8.9895335809924628],[104.86801883275733,8.7474037422609072],[104.75533774570195,8.6077154019467219],[104.8704544450386,8.570604589455364],[105.04820037175449,8.6010584767799951],[105.15108110385933,8.6622047419860024],[105.23125982342349,8.7393506677933495],[105.31680796826846,8.7912222945560234],[105.37799079558719,8.9129013207189569],[105.43766241918745,9.0264885636096999],[105.54332809430417,9.1241458976508465],[105.71558735685808,9.1941062787590582],[105.8509407831812,9.2469199058074381],[106.0039393540402,9.3040257432340638],[106.13807209413002,9.3509109911913342],[106.18576189922607,9.4171222048492638],[106.24722139440405,9.5793998703138037],[106.37580147236837,9.5514305096306735],[106.49770471048343,9.5604103686813158],[106.55966710895693,9.7024771573962934],[106.61820314148264,9.8563764314748941],[106.58467269198619,9.9830928147575513],[106.69123955416003,10.044388172983918],[106.78469046096563,10.118911601098544],[106.73818555790761,10.223874093840571],[106.75547751090501,10.396166725898755],[106.61364708943694,10.299269267765242],[106.48526685257963,10.343860409744522],[106.37486208372643,10.422556960341501],[106.25368365858337,10.459425439455044],[106.14651207498173,10.49369350023678],[105.96631774306735,10.563896433259155],[105.82241571165852,10.644052458322905],[105.73194410847704,10.739341512646458],[105.61605934036963,10.858746395178708],[105.49610506386622,10.967155972549115],[105.52430829886374,11.161627104889899],[105.47507288182312,11.26570912565799],[105.46923415118007,11.396837002369328],[105.47248940410176,11.579802139885432],[105.47267015340991,11.714368054001927],[105.45580937703539,11.803057952286851],[105.58446428704617,11.929008366725625],[105.73690638083977,11.951158088564833],[105.90467289313105,11.949628724749289],[105.99659300169557,11.927674392351928],[106.13148373000713,11.828266485393945],[106.35504927310141,11.81378119054259],[106.44191942588374,11.925524799125126],[106.58567656772338,11.935527592437179],[106.66934103215713,11.883087415152882],[106.7359591927875,11.974710060735159],[106.83000878744042,12.033744637521393],[106.94540494974268,12.069357091372639],[107.03768100538171,12.170978569633583],[107.12495823463948,12.272235943930156],[107.28656538665848,12.369071281095875],[107.44617698476628,12.300845920853673],[107.60673576687699,12.274313917504307],[107.71915544314437,12.208609806995876],[107.79556165414246,12.085508213820065],[107.83885685066186,11.955699035525125],[107.90986205563478,11.898720021100045],[108.07968326423615,11.928556836548408],[108.26960544381353,12.04200212707002],[108.46298178391871,12.126975739074354],[108.6659898031227,12.191336920616328],[108.69909713575912,12.308239693777752],[108.7196055546318,12.470382475577829],[108.76569194717939,12.61737123244553],[108.73097664151072,12.706883579067204],[108.58708956410052,12.75097066031795],[108.45387823511886,12.810466112181405],[108.33862068958429,12.892005913614177],[108.30978355451592,13.088431357659024],[108.23477321312862,13.303958256876278],[108.15336558209214,13.483560448039539],[108.09575071605801,13.663163516045691],[108.03004430687142,13.758896122622286],[108.05466718337053,13.891867418702811],[108.14190057946206,13.988788422099502],[108.22893479185377,14.105124004520261],[108.33515916177488,14.258755378272145],[108.36978389718605,14.388958907574869],[108.37497547798273,14.500746371806768],[108.36395132872727,14.621086289342003],[108.25418194383349,14.818769633744685],[108.1167773276737,14.949793211082422],[107.95980983087664,15.016961705480183],[107.8552807612746,15.034044724281683],[107.77092368694704,15.17403951184874],[107.65695837984887,15.248553084245682],[107.54773148659662,15.405060827425475],[107.42761504356562,15.500498569173462],[107.30041648016447,15.622824257748068],[107.23282715409481,15.728097604442054],[107.25189442497359,15.859509090912802],[107.39693168412913,15.911280048882174],[107.42845827263693,16.040756723742057],[107.32587755130605,16.184563975146787],[107.17683191816134,16.352064679843927],[107.02934434093983,16.290614810155734],[106.88170051206014,16.413469446516839],[106.83838845317169,16.517386788039655],[106.74329369650745,16.620591557321308],[106.6462155942873,16.715551800843659],[106.66058835643256,16.879821475974516],[106.55316256834523,16.970504045829326],[106.40273649803014,17.017028595570967],[106.27703263570895,17.245225334823655],[106.09628815259047,17.360988615632237],[106.00821146717311,17.433666283431059],[105.92598058829842,17.512593314284594],[105.85798735857652,17.609530898561257],[105.73317882510099,17.68741164954065],[105.64369495384936,17.858772120842847],[105.60166533163924,17.993810915143978],[105.50694211097259,18.123000743568895],[105.38785612147059,18.172501527533807],[105.2807030406093,18.240393743121235],[105.13347828252083,18.382576710411428],[105.14925864598868,18.590165096747793],[105.0991516387212,18.696887866137835],[104.96633452764719,18.74184046176665],[104.83175213967024,18.782111045701175],[104.69686896570035,18.821860934067445],[104.58875341408672,18.901121437830088],[104.46163013149604,18.993484948460111],[104.32501594495757,19.078929830854783],[104.18872573983739,19.118318324027648],[104.07446212079279,19.014661325792495],[103.89834588224342,19.005543315824823],[103.79075190484026,19.140475067807127],[103.71796223673631,19.230583630028011],[103.59602302107051,19.300081993914564],[103.46007851340265,19.379942323172049],[103.32786758516117,19.449153578919912],[103.39403015065989,19.585712975799094],[103.34276075868729,19.710098067757894],[103.46456365446473,19.735725999910528],[103.62531965434751,19.764568163112717],[103.70268066484368,19.893704136278405],[103.58684393425335,19.917009970920319],[103.49188136147563,20.003795194020082],[103.45122082333991,20.147411755862311],[103.30061785193445,20.283692642162858],[103.20230973386907,20.446868987362674],[103.21907862786881,20.574865531128964],[103.30017252351169,20.670124254771924],[103.18876990710559,20.844537012729702],[103.06688505751663,20.955613806795935],[103.1320900257124,21.03397703826904],[103.14484784594556,21.172510375549308],[103.17353588529519,21.306489701355613],[103.17156606201024,21.483486352523293],[103.10224809669427,21.58524233673128],[102.99656145288424,21.555247527629554],[102.89569018816884,21.43861669007271],[102.7867401669231,21.363353814248686],[102.66345465071645,21.314381318864122],[102.67292050033134,21.511507002687573],[102.66746491239169,21.674549295200933],[102.64553940160508,21.813805168358865],[102.51393051569815,21.980289783567539],[102.42508627682417,22.091221908399955],[102.32137519669932,22.188844434913861],[102.18533232071479,22.298283068260169],[102.12084438362015,22.409561153147838],[102.00281593985352,22.444402352814308],[101.87456844176717,22.406684063359375],[101.76352119956452,22.486445281457172],[101.65313450920306,22.4778934406487],[101.5561715331128,22.571998071322611],[101.4325498954815,22.6969140913845],[101.34984562830279,22.84861135679872],[101.35237665821053,22.982382239441456],[101.28105050434736,23.058676786482124],[101.17735632436349,23.104520500310418],[101.10948937984641,23.174706876734621],[101.09853981532237,23.339674142228652],[101.04434581675467,23.494102144658228],[101.01090158657478,23.626273740861595],[100.99357522355258,23.754919475045561],[101.01260061030833,23.838157359102727],[100.94857863049806,23.950246728464602],[100.92555333140074,24.052704015291074],[100.84944927337224,24.209965891280653],[100.74043583073295,24.367815626328792],[100.632461474256,24.552414016940951],[100.55042459896096,24.679835802135656],[100.42393030611917,24.833170233615039],[100.29028058971609,24.923497912204464],[100.2378702331942,25.079252992973405],[100.19648469772531,25.263671759334937],[100.15482000236292,25.372701004037744],[100.10631871436325,25.520408218257817],[100.36728642782057,25.507894818820738],[100.4054541021963,25.652464135092007],[100.32405742765303,25.720306286080874],[100.28764013337509,25.894136430750503],[100.17038742693518,25.9801811008684],[100.13333528379673,26.082290325178509],[100.10550325924069,26.226665013738973],[100.09904374070454,26.360350818310074],[100.05092285881095,26.465597112368027],[100.09210730400875,26.588157026893445],[100.12092701372985,26.706554265510864],[100.02343134349304,26.741105221986839],[99.888175868198701,26.72022481745342],[99.741733754263066,26.64877127221407],[99.59269726816656,26.657786503568893],[99.550310877797244,26.872557014465979],[99.496737783135501,26.964875393302648],[99.430405448204823,27.060108845875252],[99.423764066095245,27.171140598080633],[99.315008382978732,27.29564280391423],[99.223492366025326,27.483859424556599],[99.146768251256347,27.662325771034808],[99.130562994758392,27.788170654922514],[99.095451011525242,27.918645748407506],[99.032218790324279,28.068247134659963],[98.989309921022596,28.19932629126578],[98.995173991085011,28.374680947885103],[98.992433608794514,28.486897441148763],[98.982113497234721,28.673932598254979],[98.944680789383739,28.795476759984581],[98.847644734646082,28.830202781939079],[98.777849182395812,29.008716792944949],[98.7049990472632,29.21675297789908],[98.638261054703705,29.354249937614526],[98.573464658619798,29.468215705261208],[98.50506226295785,29.54634177777497],[98.479808096086145,29.669159667037594],[98.477012107793243,29.879790552158735],[98.444962375751246,29.987844410883625],[98.474642918856858,30.087939931078203],[98.500960917608552,30.221367715321939],[98.510729774553212,30.378064218109554],[98.394069508340039,30.524684303334336],[98.271826975976339,30.637130536709051],[98.175211015084713,30.759884676048429],[98.06176495743766,30.81664869211987],[97.954173117733149,30.860935939134585],[97.903025811111618,31.004492010487848],[97.852161340829042,31.152163779638769],[97.737335485433192,31.204511662656952],[97.706580068371821,31.305025358812497],[97.710828121826822,31.409476169934837],[97.708743309775073,31.534118760611658],[97.852797189740315,31.510515059189707],[97.876250933889253,31.61943107780554],[97.84950583785897,31.840477061899588],[97.890053353155224,32.049561040548198],[97.916385312149828,32.18913810631377],[97.764060808874333,32.268627258405282],[97.636891356667348,32.319476056127563],[97.492319564548765,32.372581254671218],[97.35021963745659,32.46338129273542],[97.246701204727472,32.562299602830265],[97.14490489562516,32.589999602680741],[96.988435491626873,32.628857822460056],[96.854108442186472,32.742835060920903],[96.736203165660072,32.85385817509674],[96.640836111862555,32.978527756355888],[96.488925385043672,32.967367100152032],[96.398272302301308,33.026465445471963],[96.239980957545271,33.074088753478215],[96.146940852224631,33.16522147124558],[96.066520762461323,33.229323904905357],[95.938462614839864,33.200686921211378],[95.769136526763489,33.279461039605565],[95.635202065651356,33.31176886661914],[95.488104888696597,33.327239517380441],[95.373799498641148,33.408703791587769],[95.239761760688793,33.442503119878104],[95.071518010077398,33.549718542941079],[94.830751295584648,33.627661628928088],[94.686902334323264,33.753319273069422],[94.494738549641838,33.787428917514369],[94.377736380234381,33.6414814015953],[94.251731341612214,33.557633417029066],[94.226261475059104,33.36040042288743],[94.099102482916635,33.336305346634418],[94.025803629723001,33.310878107250979],[93.935501555853989,33.324730350096118],[93.888395771491787,33.2250959594882],[93.992617282273542,33.057143670654376],[94.134362068987414,33.02798271244874],[94.259294907351162,33.008700520558818],[94.364803342449932,32.960578090025024],[94.392137647427688,32.760809569343692],[94.567770865887837,32.702312291488404],[94.459052549780864,32.586382636204178],[94.337258800152483,32.539756342974478],[94.200627111823607,32.516688313602202],[94.211200400001573,32.428975638619356],[94.324091787329081,32.382968536978296],[94.466506636925729,32.323967541937201],[94.56207017644347,32.179068475067396],[94.726908690779993,32.128980070365309],[94.907866718940241,32.101430057465706],[95.013820498649437,32.021263975235222],[95.12006462587108,31.971512579593465],[95.233083884815485,31.954459854599936],[95.419515588167187,31.874059354862407],[95.552159448516733,31.758119779109045],[95.522482745534901,31.673913929205256],[95.586013543083737,31.57386860131373],[95.815528097614603,31.500505743962876],[95.922497940731802,31.41342460382273],[96.062284762677251,31.335429271471298],[96.210956872313787,31.248113725515154],[96.346676710272263,31.18846056238684],[96.452690323062882,31.119078670255906],[96.488691629440865,31.025336446464163],[96.598048190264009,30.955099301268532],[96.740460333787539,30.967807071292157],[96.84706410881158,30.897920906191718],[96.97430054824153,30.814771317785109],[97.113828965847347,30.737871615841421],[97.213519562553813,30.64286392026327],[97.321491147306972,30.563080909689603],[97.455221710450758,30.453037076473976],[97.550983386852565,30.310052903834343],[97.620505703397171,30.162513658515469],[97.739675591054677,30.115319954210353],[97.82333528186409,30.023284516034469],[97.839538059818096,29.921829634382778],[97.883496842272606,29.830156425975009],[98.010639659130788,29.736813005755767],[98.039402597976817,29.581785320823997],[98.115754809823116,29.393865576803272],[98.249749704767112,29.306772147368463],[98.34980157795583,29.255249870222361],[98.44360844352704,29.16723033069924],[98.498759421560109,29.109642119798576],[98.484897750177481,29.0231539954544],[98.52723375219071,28.923892031176919],[98.562357298962553,28.792702341966802],[98.599793074936997,28.669082062318058],[98.626413795931953,28.584655608559707],[98.642032417353974,28.498543127436271],[98.72405246715239,28.364334825047152],[98.718868269824796,28.168316682309307],[98.786107278603097,27.997866173691037],[98.839494517581599,27.820743808390755],[98.87371718756377,27.690005862497948],[98.898283837280275,27.571695895408869],[98.914395080000176,27.419086310176517],[98.993279002544199,27.314928437525925],[98.980239986344245,27.180215337860165],[98.979189392401196,27.046582499114567],[99.00138452392612,26.853799163113806],[99.025954485861305,26.704732992053184],[99.01914232707388,26.557380050281822],[99.027900376273507,26.255216928354475],[99.019296008457374,26.081917052581883],[99.092967064948709,25.898967920376986],[99.11544681887446,25.74673116976922],[99.08538418347861,25.649360734323942],[99.08703099481923,25.465365181950119],[99.124309129675908,25.354983427757514],[99.200594327319877,25.381209648456267],[99.245294016191252,25.304900826408392],[99.344998734119542,25.193047427165709],[99.456961422198546,25.128721095418946],[99.496619590968436,25.021380355725146],[99.590540509107569,24.892683377026405],[99.634401561767092,24.756863022260553],[99.658553946692408,24.657468929854929],[99.726672100938359,24.57748391349563],[99.775696423601318,24.411585239981637],[99.728253854111074,24.282569332279657],[99.680274467729063,24.1764421723426],[99.791520821684756,24.189470985685439],[99.855149578356858,24.25829332685354],[99.946624775786233,24.274717647559122],[100.02669485672726,24.294154140468436],[100.13958775132608,24.242118453197001],[100.18891084009549,24.093626867137992],[100.20074373914923,23.940730859053399],[100.14975302323232,23.799944012285927],[100.0622758350556,23.683869596036004],[99.969822626514599,23.744244212253147],[99.910421833246303,23.882247073791373],[99.810652255001742,23.73541266290944],[99.656282898542671,23.695829565406839],[99.524987679680521,23.694683884789796],[99.371253846576877,23.626311054811215],[99.259729438899669,23.479584398514685],[99.206250605330837,23.348564918507694],[99.268664830314648,23.247889993127401],[99.338645825904194,23.208438625965019],[99.346033106912827,23.109194018766743],[99.503861952408599,23.04317870356908],[99.55126771786729,22.940073917793853],[99.647446879547303,22.92539787222584],[99.687787108213541,22.809177050142889],[99.678293091697554,22.629948278166612],[99.558104537082116,22.540156108848752],[99.495825998416578,22.447757205230143],[99.413654112652381,22.345883251887965],[99.506127408546917,22.275589085804434],[99.480127809994542,22.149477137064377],[99.313615366031257,22.042944244245366],[99.274835972206546,21.859098792137374],[99.272281666833479,21.720340361565274],[99.379654341605828,21.590390284911528],[99.461830123251474,21.487439014144346],[99.502925181705791,21.325430001742713],[99.486192593510452,21.213894982913946],[99.561227836345282,21.063214165819428],[99.439546577154658,20.962135931935883],[99.323330277783995,20.813568893295479],[99.168980352169953,20.662993061760162],[99.116468793554446,20.498586368863947],[99.095591139161201,20.363336837217776],[99.201503559750563,20.279933019144327],[99.109691075369241,20.102704996487699],[99.018165994105715,19.945862050994286],[99.008903028018665,19.826215077002924],[99.051684226253627,19.691410235257212],[99.117326206800925,19.591105199902241],[99.265195028247959,19.527817494762242],[99.325136488424519,19.372346685656989],[99.32680775964279,19.236991209769087],[99.346763231306127,19.098898392213194],[99.441999127348538,19.029188954633369],[99.54901099148934,19.131605512931998],[99.545116719531393,19.209501215212143],[99.574008563319438,19.292664669432273],[99.614725466734015,19.474886855463136],[99.695449597152887,19.357711826537873],[99.730843595640366,19.180705757624622],[99.798433511668335,19.059685262282713],[99.917672370462014,18.979885591688166],[100.01041584737467,18.910686627033822],[100.10362482639874,18.988252102073687],[100.14634253938766,19.183440195368014],[100.24411666804275,19.295374671579232],[100.34192813492891,19.36548363938725],[100.43853546318697,19.398673519390655],[100.54808791887369,19.454994931998595],[100.64279802916062,19.517303802244257],[100.76972210107229,19.51311172915651],[100.87816719284032,19.603557374182074],[101.0557843324253,19.599707633267336],[101.24382046996027,19.577780191627056],[101.23396134223411,19.465720659589717],[101.20713117262896,19.337236077493348],[101.24340394606176,19.24934478550513],[101.24831055282094,19.136208108713685],[101.32714670314964,19.055747903598835],[101.26659590170561,18.914073486474283],[101.23645139613531,18.702467320993808],[101.16861169221366,18.579635860272823],[101.06750171390874,18.45998023746008],[101.09576774436883,18.352315080174563],[101.15198605190841,18.293781983050156],[101.16130156653335,18.175336286930353],[101.15475517846794,18.037883090060248],[101.09799789745107,17.954062212089646],[101.03281279807261,17.896468946075757],[100.98304399956642,17.785298890068209],[100.93076954384694,17.632652108697808],[100.87684257505818,17.472719345861499],[101.00339803827929,17.315678916395314],[101.11990413657361,17.180178824333669]]]]},"properties":{"FID":0,"OBJECTID":1,"GU":0,"CATCHMENT":"3667","COUNTRY":"Cambodia","REGION":"Cambodia","WITHDRAWAL":27100000000,"BASIN_ID":"MKB","BA":415000000000,"BT":426000000000,"BWS_s":0.382331121,"WSV_s":0.69013452900000005,"SV_s":3.1845799060000002,"HFO_s":3.5789019230000001,"DRO_s":0,"STOR_s":5,"WRI_s":0,"EC_s":0,"NH3N_s":1.7050865319999999,"COD_s":1.017427667,"ECO_S_s":2.3905083340000002,"MC_s":5,"WCG_s":5,"ECO_V_s":1,"BWS":0.065172313999999995,"WSV":0.17253363199999999,"SV":1.06151602,"HFO":17,"DRO":9.2963409420000005,"STOR":0.047085440999999999,"WRI":0.036188107999999997,"EC":141.39277770000001,"NH3N":0.080281133000000005,"COD":3.0174276670000002,"ECO_S":0.15257215299999999,"MC":0.04591195,"WCG":0.36164945500000001,"ECO_V":0,"Shape_Leng":4.8657593954999996,"Shape_Area":937362.09033499996}}]}