{"type":"FeatureCollection","features":[{"type":"Feature","id":0,"geometry":{"type":"Point","coordinates":[100.083,20.273]},"properties":{"FID":0,"No":1,"Station":"Chiang Saen","Latitude":20.273,"Longitude":100.083,"Data_avail":"1960-2023","River":"Mekong","Site_No":10501}},{"type":"Feature","id":1,"geometry":{"type":"Point","coordinates":[102.137,19.891999999999999]},"properties":{"FID":1,"No":2,"Station":"Luang Prabang","Latitude":19.891999999999999,"Longitude":102.137,"Data_avail":"1985-2023","River":"Mekong","Site_No":11201}},{"type":"Feature","id":2,"geometry":{"type":"Point","coordinates":[101.67,17.899999999999999]},"properties":{"FID":2,"No":3,"Station":"Chiang Khan","Latitude":17.899999999999999,"Longitude":101.67,"Data_avail":"1965-2023","River":"Mekong","Site_No":11903}},{"type":"Feature","id":3,"geometry":{"type":"Point","coordinates":[104.73699999999999,16.539999999999999]},"properties":{"FID":3,"No":4,"Station":"Mukdahan","Latitude":16.539999999999999,"Longitude":104.73699999999999,"Data_avail":"1960-2023","River":"Mekong","Site_No":13402}},{"type":"Feature","id":4,"geometry":{"type":"Point","coordinates":[105.5,15.321999999999999]},"properties":{"FID":4,"No":5,"Station":"Khong Chiam","Latitude":15.321999999999999,"Longitude":105.5,"Data_avail":"1966-2023","River":"Mekong","Site_No":13801}},{"type":"Feature","id":5,"geometry":{"type":"Point","coordinates":[105.8,15.117000000000001]},"properties":{"FID":5,"No":6,"Station":"Pakse","Latitude":15.117000000000001,"Longitude":105.8,"Data_avail":"1960-2023","River":"Mekong","Site_No":13901}},{"type":"Feature","id":6,"geometry":{"type":"Point","coordinates":[106.01600000000001,13.545]},"properties":{"FID":6,"No":7,"Station":"Stung Treng","Latitude":13.545,"Longitude":106.01600000000001,"Data_avail":"1910-2023","River":"Mekong","Site_No":14501}}]}